name,region,website,address,phone
Petrovich,Санкт-Петербург,petrovich.ru,"Индустриальный пр., 73, Санкт-Петербург, Русија, 195279",+7 812 334-88-88
Stroitel',Санкт-Петербург,ststroitel.ru,"пр. Юрия Гагарина, 34 корпус 2, лит. А, Санкт-Петербург, Русија, 196143",+7 812 364-72-15
Stroymarket Saturn,Санкт-Петербург,saturn.net,"Литовская ул., 15, Санкт-Петербург, Русија, 194100",+7 800 100-21-12
Stroymag,Санкт-Петербург,stroymag-v-centre-spb.ru,"Литейный пр., 46, Санкт-Петербург, Русија, 191014",+7 911 025-30-08
Magazin Stroitel',Санкт-Петербург,ststroitel.ru,"два торговых зала с отдельными входами, Заневский пр-т., 35, Санкт-Петербург, Русија, 195213",+7 812 242-81-59
Строительный Магазин №1,Санкт-Петербург,ststroitel.ru,"Свечной пер., дом 5, Санкт-Петербург, Русија, 191002",+7 812 710-88-88
Stroitel'nyy Magazin,Санкт-Петербург,ststroitel.ru,"Суворовский пр., дом 56, цокольный этаж под, Сбербанком, Санкт-Петербург, Русија, 191015",+7 812 275-05-11
Krona,Санкт-Петербург,kronaspb.ru,"ул. Шевченко, 18, Санкт-Петербург, Русија, 199106",+7 812 322-66-25
"ТОП ХАУС, Офис продаж ""Парк Победы""",Санкт-Петербург,tophouse.ru,"Кузнецовская ул., 10, Санкт-Петербург, Русија, 196128",+7 812 244-95-25
Stroitel,Санкт-Петербург,ststroitel.ru,"пр. Стачек, 59а, Санкт-Петербург, Русија, 198096",+7 812 783-07-44
"ТД Материк, торгово-складской комплекс «Якорная»",Санкт-Петербург,materik-m.ru,"Якорная ул., 16 К2, Санкт-Петербург, Русија, 195248",+7 812 318-31-92
Obi,Санкт-Петербург,obi.ru,"Пулковское ш., 21к1, Санкт-Петербург, Русија, 196240",+7 812 332-88-00
Building Products,Санкт-Петербург,pulscen.ru,"Литейный пр., 46, Санкт-Петербург, Русија, 191014",+7 981 833-97-92
Leroy Merlin,Санкт-Петербург,spb.leroymerlin.ru,"пр. Культуры, д. 47, Санкт-Петербург, Русија, 194292",+7 800 700-00-99
Stroitel'nyye Gipermarkety,Санкт-Петербург,spb.leroymerlin.ru,"ул. Руставели, 59, Санкт-Петербург, Русија, 195299",+7 800 700-00-99
Lata house,Санкт-Петербург,ladnydom.ru,"Введенский канал, 7, Санкт-Петербург, Русија, 190013",+7 800 200-62-82
"Arkhimed, Stroymarket",Санкт-Петербург,arhimedmarket.ru,"пр. Большевиков, д 9, Санкт-Петербург, Русија, 193231",+7 800 200-62-82
M-Profil',Санкт-Петербург,mprofil.ru,"ул. Оптиков, 22, Санкт-Петербург, Русија, 197374",+7 812 327-80-60
Maxidom,Санкт-Петербург,maxidom.ru,"ул. Фаворского, 12, Санкт-Петербург, Русија, 195220",+7 812 324-55-05
Masterovoy,Санкт-Петербург,masterovoy-spb.ru,"Кирочная ул., 23, Санкт-Петербург, Русија, 191123",+7 812 275-27-03
Arkhimed,Санкт-Петербург,arhimedmarket.ru,"пр. Науки, 21, Санкт-Петербург, Русија, 195220",+7 911 991-40-80
Stroyplyus Spb,Санкт-Петербург,arhimedmarket.ru,"Большой Смоленский пр., 6, Санкт-Петербург, Русија, 192029",+7 812 920-57-07
Skrin,Санкт-Петербург,arhimedmarket.ru,"Лермонтовский пр., 54, Санкт-Петербург, Русија, 190103",+7 812 920-57-07
Minvata Spb,Санкт-Петербург,arhimedmarket.ru,"Хрустальная ул., 27, Санкт-Петербург, Русија, 192019",+7 812 412-15-59
"Arkhimed, Stroymarket, Ooo",Санкт-Петербург,arhimedmarket.ru,"пр. Просвещения, 35, Санкт-Петербург, Русија, 194295",+7 812 240-21-30
Stroytovary,Санкт-Петербург,arhimedmarket.ru,"Финский пер., 9, Санкт-Петербург, Русија, 195009",+7 921 345-82-38
Metizy-Kamkabel',Санкт-Петербург,arhimedmarket.ru,"Лиговский пр., 179, Санкт-Петербург, Русија, 192007",+7 812 490-46-22
Platon Spb,Санкт-Петербург,spbplaton.ru,"Удельный пр., 29, Санкт-Петербург, Русија, 194214",+7 812 642-50-74
Материк. Офис продаж «Смоленка»,Санкт-Петербург,materik-m.ru,"наб. реки Смоленки, д.31, Санкт-Петербург, Русија, 199048",+7 812 318-31-92
"Trade and construction company ""Roof House""",Санкт-Петербург,materik-m.ru,"Торжковская ул., 1 корпус 2, Санкт-Петербург, Русија, 197342",+7 812 777-79-47
TIKKURILA - СТРОЙТОВАРЫ СТРОЙМАГ МАСТЕР ОК!,Санкт-Петербург,materik-m.ru,"Санкт-Петербург , Кузнечный переулок 16 ул. Пушкинская.19 пом. 7- Н, Санкт-Петербург, Русија, 191040",+7 812 572-11-85
Lerua Merlen,Санкт-Петербург,spb.leroymerlin.ru,"ул. Руставели, 59, Санкт-Петербург, Русија, 195299",+7 800 700-00-99
Apel'sin Grupp,Санкт-Петербург,apelsingroup.ru,"пр. Юрия Гагарина, 2, к.3, Санкт-Петербург, Русија, 196105",+7 812 385-67-76
Stroykhozmarket Bau,Санкт-Петербург,apelsingroup.ru,"Колпинская ул., 15, Санкт-Петербург, Русија, 197110",+7 812 235-46-59
"ТОП ХАУС, Офис продаж ""Озерки""",Санкт-Петербург,tophouse.ru,"Северный пр., 14/1, Санкт-Петербург, Русија, 194295",+7 812 244-95-35
Ambar-Stroy,Санкт-Петербург,ambar-stroy.ru,"Домостроительная ул., 11, Санкт-Петербург, Русија, 194292",+7 812 323-87-77
Saturn Stroymarket,Санкт-Петербург,ambar-stroy.ru,"Санкт-Петербургское ш., д.60, Санкт-Петербург, Русија, 198515",+7 812 323-87-77
Dzhi-Stroy,Санкт-Петербург,g-komplekt.ru,"ул. Коли Томчака, 28, 203, Санкт-Петербург, Русија, 196240",+7 812 715-55-10
Fossa,Санкт-Петербург,g-komplekt.ru,"Фурштатская ул., 10, Санкт-Петербург, Русија, 191028",+7 812 272-65-19
Metizy,Санкт-Петербург,metizi.com,"Ленинский пр-т., 90, Санкт-Петербург, Русија, 198332",+7 812 743-10-10
"Torgovyy Dom ""Vimos""",Санкт-Петербург,sestroretsk.vimos.ru,"Транспортный пер., д.3, Сестрорецк, Санкт-Петербург, Русија, 197706",+7 812 666-66-55
Yevrostroy,Санкт-Петербург,sestroretsk.vimos.ru,"Английский пр., 46, Санкт-Петербург, Русија, 191121",+7 812 495-16-97
Stroy Bazar,Санкт-Петербург,sestroretsk.vimos.ru,"пр. Юрия Гагарина, 34, Санкт-Петербург, Русија, 196143",+7 981 688-57-59
Stroy-Ambar,Санкт-Петербург,sestroretsk.vimos.ru,"Караваевская ул., 24 корп 1, Санкт-Петербург, Русија, 192177",+7 953 168-15-46
Stroykhoztovary,Санкт-Петербург,vk.com,"пр-т. Энгельса, 111к1, Санкт-Петербург, Русија, 194354",+7 812 296-38-74
Domashniy Master,Санкт-Петербург,homaste.ru,"Кронверкская ул., 7, Санкт-Петербург, Русија, 197101",+7 812 929-60-70
"""Stroysklad"". Internet-Magazin Stroitel'nykh Materialov",Санкт-Петербург,stroysklad-spb.pulscen.ru,"ул. Шоссейная, 25, Санкт-Петербург, Ленинградская обл., Русија, 194292",+7 812 943-12-46
"Ars Spb, Tsentr Innovatsionnykh Otdelochnykh Materialov",Санкт-Петербург,arsspb.biz,"пр. Луначарского, 72, корп. 1, Санкт-Петербург, Русија, 194291",+7 812 643-38-46
Viking,Санкт-Петербург,arsspb.biz,"Большая Разночинная ул., 14, Санкт-Петербург, Русија, 197110",+7 812 643-38-46
Masterok Td Ooo,Санкт-Петербург,les-ms.ru,"ул. Профессора Попова, д.47, Санкт-Петербург, Русија, 190000",+7 812 448-07-33
Kompaniya Komstroy Spb,Санкт-Петербург,comstroy-spb.ru,"Пискарёвский пр., 63, Санкт-Петербург, Русија, 195273",+7 812 313-57-02
Imaks,Санкт-Петербург,imaks.su,"Минеральная улица, 13, лит.З, Санкт-Петербург, Русија, 195197",+7 800 555-28-65
Construction Materials,Санкт-Петербург,imaks.su,"Замшина ул., 33, Санкт-Петербург, Русија, 195271",+7 800 555-28-65
Yupiter.ru,Санкт-Петербург,imaks.su,"Комендантский проспект дом 51 копр. 1, Санкт-Петербург, Русија, 197350",+7 812 317-77-73
Slavdom,Санкт-Петербург,spb.slavdom.ru,"Аптекарская наб., 12, Санкт-Петербург, Русија, 197022",+7 812 337-51-51
"Stroytovary ""Domashniy Master""",Санкт-Петербург,homaste.ru,"Фурштатская улица 2/12 пом 4-Н, Санкт-Петербург, Русија, 191028",+7 812 925-70-80
Zagorodnyy Prospekt Stroitel'nyy Magazin,Санкт-Петербург,homaste.ru,"Кубинская ул., д. 73, кор. 1, Санкт-Петербург, Русија, 196240",+7 911 170-40-48
Tekhnonikol' Torgovaya Set',Санкт-Петербург,sankt-peterburg.tstn.ru,"просп. Обуховской Обороны, 76М, Санкт-Петербург, Русија, 192029",+7 800 600-09-95
Stroitel'nyy Internet-Magazin Perimetr,Санкт-Петербург,perimetr-shop.ru,"пр. Луначарского, 72 к.1, Санкт-Петербург, Русија, 194291",+7 812 467-40-31
Stroitel'nyy Internet Magazin,Санкт-Петербург,perimetr-shop.ru,"Предпортовая ул., 6к8, Санкт-Петербург, Русија, 196240",+7 995 651-80-18
Stroymag Stroytovary,Санкт-Петербург,stroymag-v-centre-spb.ru,"Садовая ул., д.77, Санкт-Петербург, Русија, 191021",+7 911 814-92-94
Stroitel'nyy Torgovyy Dom Sks,Санкт-Петербург,sks.spb.ru,"пр. Юрия Гагарина, д.2, корп.8, Санкт-Петербург, Русија, 196105",+7 812 740-17-17
Muravey,Санкт-Петербург,sks.spb.ru,"Большая Монетная ул., 29, Санкт-Петербург, Русија, 197101",+7 921 966-50-82
Stroykomplekt,Санкт-Петербург,sks.spb.ru,"Варшавская ул., 61/1, Санкт-Петербург, Русија, 196191",+7 921 966-50-82
СКС строительные материалы,Санкт-Петербург,stroysks.ru,"Благодатная ул., 63, Санкт-Петербург, Русија, 196105",+7 812 984-21-48
Stroydom,Санкт-Петербург,stroysks.ru,"ул. Ленсовета, 80, Санкт-Петербург, Русија, 196158",+7 812 382-87-92
1-Y Stroykhoz Magazin,Санкт-Петербург,stroysks.ru,"просп. Обуховской Обороны, 81, Санкт-Петербург, Русија, 192029",+7 901 373-48-98
"Stroy Diskont, Internet-Magazin Stroitel'nykh I Otdelochnykh Materialov",Санкт-Петербург,stroysks.ru,"Якорная ул., 10, Санкт-Петербург, Русија, 195027",+7 812 380-91-21
Stroymarket,Санкт-Петербург,stroysks.ru,"Шлиссельбургский пр., 13, Санкт-Петербург, Русија, 192076",+7 951 674-99-53
Stroykhoz,Санкт-Петербург,stroysks.ru,"Ивановская ул., 9, Санкт-Петербург, Русија, 192171",+7 812 362-23-60
Stroitel'nyy Mir,Санкт-Петербург,strmir.ru,"Выборгская наб., 29, Санкт-Петербург, Русија, 194044",+7 812 542-12-85
Lsr Tsentr Stroitel'nykh Materialov,Санкт-Петербург,lsrstena.ru,"к.1, Репищева ул., 10, Санкт-Петербург, Русија, 197375",+7 812 334-87-18
Bk Stroitel'nyye Materialy,Санкт-Петербург,lsrstena.ru,"Ломаная ул., 11, Санкт-Петербург, Русија, 196084",+7 812 334-87-18
Материк. Торгово-складской комплекс «Калинина»,Санкт-Петербург,materik-m.ru,"ул. Калинина, 39B, Санкт-Петербург, Русија, 198095",+7 812 318-31-92
"Uyutnyy Dom, Magazin Stroitel'nykh Tovarov",Санкт-Петербург,cork-house.ru,"Южное ш., 37, Санкт-Петербург, Русија, 192241",+7 812 715-35-35
Stroyslon,Санкт-Петербург,cork-house.ru,"Сытнинская ул., 3/5, Санкт-Петербург, Русија, 197198",+7 812 715-35-35
Nisko Spb,Санкт-Петербург,cork-house.ru,"ул. Марата, 49, Санкт-Петербург, Русија, 191002",+7 812 333-23-30
Td Master Komplekt,Санкт-Петербург,masterkomplekt.ru,"БЦ ""Кантемировский"", Инструментальная ул., 3, Санкт-Петербург, Русија, 197022",+7 812 244-72-22
Bsk,Санкт-Петербург,bsc.im,"Торфяная дор., 7, Санкт-Петербург, Русија, 197374",+7 812 313-87-17
VERTEX - интернет магазин строительных материалов,Санкт-Петербург,bsc.im,"Октябрьская наб., 34 корпус 6, 219, Санкт-Петербург, Русија, 193091",+7 812 241-15-75
Stroy Sklad Torgovo-Stroitel'nyy Internet-Magazin,Санкт-Петербург,stroy-sklad.spb.ru,"г. Санкт-Петербург, Поселок, Ольховая ул., 20Д, им. Свердлова, Санкт-Петербург, Русија, 197371",+7 812 925-78-77
Online Shop AyPokupka,Санкт-Петербург,ipokupka.com,"Коломяжский пр., 20, Санкт-Петерубрг, Санкт-Петербург, Русија, 197375",+7 981 890-75-59
"Stroitel'nyy Magazin ""U Soseda""",Санкт-Петербург,усоседа.рф,"ул. Валерия Гаврилина, 13к1, Санкт-Петербург, Русија, 194358",+7 952 272-34-43
Promtovary,Санкт-Петербург,усоседа.рф,"Граждaнский пр-т., 92, Санкт-Петербург, Русија, 195257",+7 952 272-34-43
Construction Trading House Petrovich,Ленинградская область,petrovich.ru,"12-13 километр, а/д Кола, 3, Кудрово, Ленинградская обл., Русија, 188657",+7 812 334-88-88
"Торговый Дом ""ВИМОС""",Ленинградская область,kirovsk.vimos.ru,"ул. Победы, 6, Кировск, Ленинградская обл., Русија, 187340",+7 812 666-66-55
Stroitel'nyy Magazin Element,Ленинградская область,gatchina.elementsm.ru,"Ленинградское ш., 10, Гатчина, Ленинградская обл., Русија, 188300",+7 921 746-54-14
Vimos,Ленинградская область,koltushi.vimos.ru,"улица Мелиораторов, 2 Колтушское сельское поселение, дер, Аро, Ленинградская обл., Русија, 188680",+7 812 666-66-55
"Trading House ""Vimos""",Ленинградская область,sosnovo.vimos.ru,"ул. Вокзальная, 8а, Сосново, Ленинградская обл., Русија, 188731",+7 812 666-66-55
Stroykhaus,Ленинградская область,строй-хаус.рф,"ул. Шоссейная, 57, Янино-1, Ленинградская обл., Русија, 188689",+7 800 201-23-29
Stroybaza,Санкт-Петербург,строй-хаус.рф,"ул. Шоссейная, 7, Санкт-Петербург, Ленинградская обл., Русија, 188660",+7 800 201-23-29
"Stroitel'naya Baza ""Sofiya""",Ленинградская область,sofbaz.ru,"Набережная ул., 1, 20-а, Кировск, Ленинградская обл., Русија, 187340",+7 911 952-79-47
Magazin Stroitel'nykh Tovarov,Ленинградская область,sofbaz.ru,"Leningrad Oblast, Русија, 188245",+7 911 952-79-47
Petrovich (Gatchina),Ленинградская область,gatchina.petrovich.ru,"Индустриальная ул., 45, Гатчина, Ленинградская обл., Русија, 188354",+7 813 712-99-98
Stroyudacha,Ленинградская область,bolshaya-ijora.stroyudacha.ru,"Приморское ш., 51, Большая Ижора, Ленинградская обл., Русија, 188531",+7 800 550-88-66
"Stroitel'nyy Magazin, Ropsha",Ленинградская область,bolshaya-ijora.stroyudacha.ru,"Стрельнинское ш. - Старо, Петергофская ул., Ропша, Ленинградская обл., Русија, 188513",+7 800 550-88-66
Svoy Dom - Stroitel'nyye Materialy I Tovary Dlya Doma,Ленинградская область,vk.com,"ул. Шувалова, 15, Мурино, Ленинградская обл., Русија, 188662",+7 904 555-99-92
"Magazin Stroitel'nykh Tovarov I Tovarov Dlya Doma ""Kerosinka""",Ленинградская область,vk.com,"Первомайская ул., 6, Будогощь, Ленинградская обл., Русија, 187120",+7 904 555-99-92
Stroitel'nyye Materialy,Ленинградская область,vk.com,"41К-179, Вартемяги, Ленинградская обл., Русија, 188653",+7 904 555-99-92
Stroyudacha Privetninskoe,Ленинградская область,privetninskoe.stroyudacha.ru,"Privetninskoe, Leningrad Oblast, Русија, 188852",+7 800 550-88-66
Stroitel'nyye Inzhenernyye Otdelochnyye Materialy,Ленинградская область,vanaheim.ru,"дер ул. Почтовая, 18, Фёдоровское, Ленинградская обл., Русија, 187021",+7 495 409-97-39
"Stroybaza ""Oreshek""",Ленинградская область,stroibaza-oreshek.ru,"Красный тракт, д. 14, Широкий ассортимент строительных материалов, ., Ленинградская обл., Русија, 187320",+7 921 798-65-06
Stroy Khauz,Ленинградская область,stroibaza-oreshek.ru,"п.им.Свердлова,Ленинградская обл. Западный проезд 2 к2, п.им.Свердлова, Ленинградская обл., Русија, 188682",+7 981 902-38-18
Khozyastvenno-Stroitel'nyy Magazin,Ленинградская область,stroibaza-oreshek.ru,"Озерновская ул., 6А, Рахья, Ленинградская обл., Русија, 188671",+7 813 706-63-60
"Telezhka, Stroitel'nyy Gipermarket",Санкт-Петербург,stmarket.su,"5А, д. Колтуши, Санкт-Петербург, Ленинградская обл., Русија, 188680",+7 812 679-70-70
"Torgovyy Dom ""Trud""",Ленинградская область,stmarket.su,"Ладожская ул., 9А, Кировск, Ленинградская обл., Русија, 187342",+7 812 679-70-70
Slava,Ленинградская область,stmarket.su,"наб. Ладожской Флотилии, 26 корпус 2, Новая Ладога, Ленинградская обл., Русија, 187450",+7 812 679-70-70
Stroyvkus - Stroitel'nyye Materialy,Ленинградская область,stroyvkus.ru,"ул. Новый Карьер, здание 3, Суоранда, Ленинградская обл., Русија, 188689",+7 812 454-15-65
Std Brigadir,Ленинградская область,brigadirstd.ru,"Красносельское ш., строение 2, Пески, Ленинградская обл., Русија, 188507",+7 921 960-58-30
Magazin Stroykhoztovary,Ленинградская область,vk.com,"Приладожский ул., 24, Приладожский, Ленинградская обл., Русија, 187326",+7 813 626-55-69
Russkaya Derevnya,Ленинградская область,tosno-stroy.ru,"Московское ш., 17а, Тосно, Ленинградская обл., Русија, 187002",+7 921 940-65-87
Petrovich (Kingissepp),Ленинградская область,kingisepp.petrovich.ru,"ул. Дорожников, 14, Кингисепп, Ленинградская обл., Русија, 188480",+7 813 754-77-77
Stroymaterialy,Санкт-Петербург,kingisepp.petrovich.ru,"Московское ш., Санкт-Петербург, Ленинградская обл., Русија, 196634",+7 813 754-77-77
"Masterkom, Stroitel'nyy Magazin",Ленинградская область,master-kom.ru,"Западная, 5-а, Коммунар, Ленинградская обл., Русија, 188320",+7 812 460-51-12
Stroymir,Ленинградская область,master-kom.ru,"Ленинградское ш., 30, дер. Ириновка, Ленинградская обл., Русија, 188672",+7 921 897-81-71
Stroybaza Putilovo,Ленинградская область,стройбаза-путилово.рф,"ул. Шоссейная, 7, д. Горная Шальдиха, Ленинградская обл., Русија, 187351",+7 911 927-77-90
BUILDING Base Termite,Ленинградская область,bazatermit.ru,"пос, ул. Мира, 10, пос. имени Морозова, Ленинградская обл., Русија, 188679",+7 812 334-14-17
"Magazin ""Stroykhoz""",Ленинградская область,bazatermit.ru,"Leningrad Oblast, Русија, 188200",+7 921 586-50-63
Stroytovary Muravey,Ленинградская область,bazatermit.ru,"Unnamed Road, Назия, Ленинградская обл., Русија, 187351",+7 921 586-50-63
"Stroitel'nyy Magazin ""Sampo""",Ленинградская область,bazatermit.ru,"Советская, 51, Ленинградская обл., Русија, 188918",+7 813 787-45-46
"Oreshek, Stroitel'naya Baza",Ленинградская область,stroibaza-oreshek.ru,"Красный тракт, 14, Шлиссельбург, Ленинградская обл., Русија, 187320",+7 921 798-65-06
Stroy Arsenal,Ленинградская область,stroibaza-oreshek.ru,"E105, Ленинградская обл., Русија, 187430",+7 931 207-56-59
Magazin Stroitel'nykh Materialov.,Ленинградская область,stroibaza-oreshek.ru,"ул. Жертв Революции, 21, Вырица, Ленинградская обл., Русија, 188382",+7 931 207-56-59
Tk Il'm,Ленинградская область,stroibaza-oreshek.ru,"Mga, Leningrad Oblast, Русија, 187300",+7 921 654-39-03
"Anturazh, Magazin Stroitel'nykh Tovarov I Inter'yernykh Resheniy",Ленинградская область,antyrag.ru,"Набережная ул., 5, Кировск, Ленинградская обл., Русија, 187340",+7 965 030-30-88
Al'fastroy,Ленинградская область,alfastroy-sosnovo.ru,"ул. Ленинградская, 71, Сосново, Ленинградская обл., Русија, 188730",+7 931 383-03-10
"Magazin ""Uyutnyy Dom""",Ленинградская область,alfastroy-sosnovo.ru,"ул. Петрозаводская, 15, Сясьстрой, Ленинградская обл., Русија, 187420",+7 951 676-97-08
Uroven',Ленинградская область,alfastroy-sosnovo.ru,"Ленинградская ул., 31, Кирпичное, Ленинградская обл., Русија, 188861",+7 813 786-91-94
Stroitel'nyye Tovary,Ленинградская область,alfastroy-sosnovo.ru,"Chernovo, Leningrad Oblast, Русија, 188301",+7 813 786-91-94
"Stroitel'naya Baza ""Razdol'ye""",Ленинградская область,alfastroy-sosnovo.ru,"посёлок Ларионово, Ленинградская область, Приозерский район, Ленинградская обл., Русија, 188763",+7 812 923-72-72
Stroytovary Baza Stroitel'nykh Materialov,Ленинградская область,alfastroy-sosnovo.ru,"Ленинградская ул. 7, Выборгский р-н, Кирпичное пос., Ленинградская обл., 188861, Кирпичное, Ленинградская обл., Русија, 188861",+7 812 923-72-72
СтройЛюбань. Строительные и отделочные материалы с доставкой! Низкие цены!,Ленинградская область,stroy-luban.ru,"Московское ш., 9, Любанское городское поселение, Ленинградская обл., Русија, 187051",+7 981 199-36-10
"Dialog, Khozyaystvennyy Magazin",Ленинградская область,stroy-luban.ru,"Кингисеппское ш., 22, Ивангород, Ленинградская обл., Русија, 188490",+7 813 755-15-42
Stroytorg,Ленинградская область,stroytorg-peterhof.ru,"Приморская ул., 37, Лебяжье, Ленинградская обл., Русија, 188532",+7 813 767-62-76
"TD ""Stroyudacha""",Ленинградская область,kirpichnoe.stroyudacha.ru,"Ленинградская ул., 12, Кирпичное, Ленинградская обл., Русија, 188861",+7 800 550-88-66
Vsevolozhskaya Timber base,Ленинградская область,vsevbaza.ru,"Пушкинская ул., 9, Всеволожск, Ленинградская обл., Русија, 188642",+7 812 346-52-63
Saturn,Санкт-Петербург,saturn.net,"Индустриальный пр., 71, Санкт-Петербург, Русија, 195279",+7 800 100-21-12
Metro Primorskaya,Санкт-Петербург,saturn.net,"ул. Оптиков, 45, Санкт-Петербург, Русија, 197374",+7 800 100-21-12
Poisk,Санкт-Петербург,saturn.net,"Садовая ул., 44, офис 25, Санкт-Петербург, Русија, 190031",+7 812 310-08-00
"Mastermarket, Stroitel'nyy Magazin",Санкт-Петербург,saturn.net,"Малый пр. П.С., 67, Санкт-Петербург, Русија, 197136",+7 812 903-60-08
"Ooo ""Prom"" - Vso Dlya Vashey Stroyki",Санкт-Петербург,komplektacya.ru,"ул. Александра Матросова, 4 корпус 2, Санкт-Петербург, Русија, 194100",+7 812 380-12-34
Stroitel'nyye Resursy,Санкт-Петербург,profpksr.ru,"192177, Санкт-Петербург г, 3-й Рыбацкий проезд.3.6, лит. А, пом.№11, оф№1, Санкт-Петербург, Русија, 192177",+7 812 502-72-04
PATINA,Санкт-Петербург,profpksr.ru,"Суворовский пр., 40, 1 этаж, вход со двора, Санкт-Петербург, Русија, 191015",+7 812 275-21-85
Nevskiye Stroymaterialy,Санкт-Петербург,profpksr.ru,"Завод ""Картонтоль, просп. Обуховской Обороны, 72, Санкт-Петербург, Русија, 192029",+7 812 365-53-59
Housing,Санкт-Петербург,profpksr.ru,"Удельный пр., 2a, Санкт-Петербург, Русија, 194017",+7 921 412-19-08
"Ooo ""Stroy-Otdelka"" Proizvodstvo I Prodazha Otdelochnykh Materialov",Санкт-Петербург,spb-centurion.ru,"просп. Обуховской Обороны, 120К, Санкт-Петербург, Русија, 192012",+7 812 380-83-18
Magazin Stroitel'nyye Tovary,Санкт-Петербург,spb-centurion.ru,"Сант Петерсбург, Русија, 197101",+7 812 380-83-18
Razmetelevo,Ленинградская область,stroybaza-razmetelevo.ru,"М-18 Е-105, Мурманское ш., Разметелево, Ленинградская обл., Русија, 188686",+7 812 448-64-63
Arteliya,Ленинградская область,arteliya.ru,"Ломоносовский район, промышленная зона Пески, Аннинское городское поселение, Ленинградская обл., Русија, 188505",+7 812 448-81-81
"Magazin ""Dom Plyus""",Ленинградская область,arteliya.ru,"Ул. Некрасова, д. 37, корпус 1А, Выборг, Ленинградская обл., Русија, 188800",+7 921 928-58-15
"Stroitel'nyy Magazin ""Stroydombaza""",Ленинградская область,orlan-luga.ru,"Малая Инженерная ул., 2, Луга, Ленинградская обл., Русија, 188230",+7 813 722-20-72
"Stroitel'naya Torgovaya Kompaniya ""Nova""",Ленинградская область,orlan-luga.ru,"ул. Суворова, 47, Новая Ладога, Ленинградская обл., Русија, 187450",+7 962 703-71-81
Nikol'skiy,Ленинградская область,orlan-luga.ru,"пр. Ленина, 10, Тосно, Ленинградская обл., Русија, 187002",+7 813 612-56-96
Stroitel'nyy,Ленинградская область,stdvolhov.ru,"ул. Юрия Гагарина, 27 а, Волхов, Ленинградская обл., Русија, 187400",+7 813 637-27-24
"Stroybaza ""Termit""",Ленинградская область,bazatermit.ru,"Dunai, Leningrad Oblast, Русија, 188679",+7 906 250-50-24
Строй-Любань. Строительные и отделочные материалы с доставкой! Низкие цены!,Ленинградская область,stroy-luban.ru,"ул. Ленина, д 20, Любанское городское поселение, Ленинградская обл., Русија, 187051",+7 952 281-78-98
Stena,Ленинградская область,stena.spb.ru,"Колтушское ш., 184, Всеволожск, Ленинградская обл., Русија, 188640",+7 812 900-91-09
Stroitel'naya Baza,Ленинградская область,stena.spb.ru,"Железнодорожная ул., 22, Кировск, Ленинградская обл., Русија, 187342",+7 812 900-91-09
Torgovyy Dom Stroitel',Ленинградская область,stena.spb.ru,"ул. Калинина, 44, Волхов, Ленинградская обл., Русија, 187406",+7 812 900-91-09
Yefimych,Ленинградская область,stena.spb.ru,"ул. Энергетиков, 2к3, Тосно, Ленинградская обл., Русија, 187000",+7 911 236-17-74
Zolushka,Ленинградская область,zolyska.ru,"ул. 6-й микрорайон, Д.10, Тихвин, Ленинградская обл., Русија, 187556",+7 911 817-60-69
"Magazin ""Kvant"" Stroytovary",Ленинградская область,zolyska.ru,"Maloe Karlino, Leningrad Oblast, Русија, 188506",+7 931 586-47-05
Строймаркет Искрасофт,Ленинградская область,zolyska.ru,"ул. Куйбышева, 10, Выборг, Ленинградская обл., Русија, 188800",+7 813 782-14-39
Stroim Nash Dom,Ленинградская область,strongfix.ru,"Ленинградское ш., 65, Выборг, Ленинградская обл., Русија, 188805",+7 813 785-05-55
Stroyopttorg,Ленинградская область,strongfix.ru,"Шлисељбург, Лењинградска област, Русија, 187320",+7 813 627-74-92
Forum,Ленинградская область,strongfix.ru,"ул. Советская, 28, Сясьстрой, Ленинградская обл., Русија, 187420",+7 813 635-41-00
Magazin Stroyka,Ленинградская область,strongfix.ru,"ул. Маяковского, Волхов, Ленинградская обл., Русија, 187406",+7 921 872-91-39
Stroitel'nyy Torgovyy Dom,Ленинградская область,stdvolhov.ru,"ул. Юрия Гагарина, д. 27А, Волхов, Ленинградская обл., Русија, 187401",+7 813 637-52-42
Stroymarket 365,Архангельская область,stroymarket-365.ru,"ул. Мостовая, 3 стр. 3, Архангельск, Архангельская обл., Русија, 163059",+7 818 247-07-30
Stroymaterialy-Plyus,Архангельская область,стройматериалы29.рф,"Талажское шоссе д. 1/с1, Архангельск, Архангельская обл., Русија, 163045",+7 818 247-12-17
Al'batros,Архангельская область,стройматериалы29.рф,"Архангельская обл. Плесецкий р-он пСевероонежск 2 мкр-он д 22, рп Североонежск, Архангельская обл., Русија, 164268",+7 921 474-73-76
"Muravey, Magazin Otdelochnykh I Stroitel'nykh Materialov",Архангельская область,muravei29.ru,"Окружное ш., 6 корпус 1, Архангельск, Архангельская обл., Русија, 163045",+7 818 262-56-41
"Som, Magazin Stroitel'nykh Tovarov",Архангельская область,muravei29.ru,"ул. Тимме, 23, Архангельск, Архангельская обл., Русија, 163071",+7 818 265-79-56
"Domostroy, Set' Magazinov Stroitel'nykh I Otdelochnykh Materialov",Архангельская область,muravei29.ru,"Вологодская ул., 53, Архангельск, Архангельская обл., Русија, 163001",+7 818 265-79-56
"Muravey, Torgovaya Set'",Архангельская область,muravei29.ru,"к, Окружное ш., 6 корпус 1, Архангельск, Архангельская обл., Русија, 163045",+7 818 265-79-56
Mir Snabzheniya,Архангельская область,ms29.ru,"Талажское ш., 1, Архангельск, Архангельская обл., Русија, 163045",+7 818 247-12-17
Стройбат,Архангельская область,stroybat29.ru,"ул. Смольный Буян, 23к1, Архангельск, Архангельская обл., Русија, 163002",+7 818 229-45-45
"Avangard, Stroitel'nyy Supermarket",Архангельская область,stroybat29.ru,"Болтинское ш., 8,корпус 3, Котлас, Архангельская обл., Русија, 165300",+7 818 372-74-70
"Ooo ""Sevstroytorg""",Архангельская область,sevstroytorg.com,"ул. Тимме, 23, Архангельск, Архангельская обл., Русија, 163071",+7 818 264-13-53
Bastion,Архангельская область,vk.com,"ул. 3-й микрорайон, 19, Североонежск, Архангельская обл., Русија, 164268",+7 962 660-54-09
"Novostroy, Ooo",Архангельская область,novostroy-29.ru,"Доковская ул., 6, корп. 2, Архангельск, Архангельская обл., Русија, 163038",+7 818 244-35-55
"Stroyka, Optovo-Roznichnyy Tsentr",Архангельская область,novostroy-29.ru,"Партизанская ул., 1 корпус 2, Плесецк, Архангельская обл., Русија, 164262",+7 818 327-43-13
"Ooo ""Russkiy Sever""",Архангельская область,novostroy-29.ru,"3-й пятилетки ул., 27, Новодвинск, Архангельская обл., Русија, 164901",+7 818 524-58-76
stro18,Архангельская область,stro18.ru,"просп. Ломоносова, 261, Архангельск, Архангельская обл., Русија, 163001",+7 963 546-41-93
ООО «СИТЕЛ»,Архангельская область,sytel29.ru,"улица Декабристов, д. 72, корп. 1, Новодвинск, Архангельская обл., Русија, 164901",+7 911 599-74-15
"ООО ""Севстройторг""",Архангельская область,sevstroytorg.com,"Окружное ш., д. 6, к. 1, Архангельск, Архангельская обл., Русија, 163045",+7 818 262-58-52
"Soyuz, Magazin Stroitel'nykh Tovarov",Архангельская область,sevstroytorg.com,"пр. Мира, 22, Котлас, Архангельская обл., Русија, 165300",+7 818 372-74-49
Stroy Mir,Архангельская область,малодвинье.рф,"ул. Пугачёва, 22, Котлас, Архангельская обл., Русија, 165305",+7 921 074-20-01
Snabzhenets,Архангельская область,малодвинье.рф,"Розы Шаниной ул., 4, Архангельск, Архангельская обл., Русија, 163000",+7 818 268-13-00
Stroybaza Molotok,Архангельская область,малодвинье.рф,"29, ул. Ленина, стр. 3, Архангельск, Архангельская обл., Русија, 163015",+7 818 268-13-00
"Stroymag, Magazin Stroitel'nykh Tovarov",Архангельская область,малодвинье.рф,"Болтинское ш., 8, корп. 1, Котлас, Архангельская обл., Русија, 165300",+7 818 372-74-34
Ekonom,Архангельская область,econom.su,"ТЦ ""Петровский"", ул. Русанова, 8, Архангельск, Архангельская обл., Русија, 163030",+7 911 564-72-52
Umelets,Архангельская область,econom.su,"ул. Попова, 46, Архангельск, Архангельская обл., Русија, 163046",+7 911 564-72-52
Magazin Palych,Архангельская область,econom.su,"Nyandoma, Arkhangelsk Oblast, Русија, 164200",+7 911 564-72-52
Perestroyka,Архангельская область,econom.su,"ТД ""Димитровский"", ул. Димитрова, 15, 1 этаж, Новодвинск, Архангельская обл., Русија, 164902",+7 953 931-87-13
"Muravey, Magazin Otdelochnykh Materialov",Архангельская область,econom.su,"ул. Розы Люксембург, 38, Архангельск, Архангельская обл., Русија, 163000",+7 818 268-26-18
"Строительный магазин ""МАСТЕР*ОК""",Архангельская область,grandline.ru,"Октябрьская ул., д.2, Плесецк, Архангельская обл., Русија, 164262",+7 921 249-90-01
Story House,Архангельская область,grandline.ru,"ТД ""Московский"", Московский пр., 25/2, Архангельск, Архангельская обл., Русија, 163002",+7 952 300-00-31
"Ooo ""Fantorg""",Архангельская область,vk.com,"пр. Ленина, 222 в, Онега, Архангельская обл., Русија, 164840",+7 818 397-28-70
Kompaniya Svs,Архангельская область,vk.com,"ул. Котласская, 1/1, 1 этаж, офис 17, Архангельск, Архангельская обл., Русија, 163046",+7 818 227-16-50
Drevmarket,Архангельская область,vk.com,"просп. Ломоносова, 64, Архангельск, Архангельская обл., Русија, 163000",+7 963 200-45-32
"Dachnaya Pokupka, Magazin Stroitel'nykh Materialov",Архангельская область,vk.com,"корп. 2, ул. Гагарина, 44, Архангельск, Архангельская обл., Русија, 163051",+7 818 243-21-40
Molotok,Архангельская область,vk.com,"Plesetsk, Arkhangelsk Oblast, Русија, 164262",+7 818 243-21-40
Remont3000,Архангельская область,ремонт3000.рф,"ул. Hабережная, 85, Емецк, Архангельская обл., Русија, 164537",+7 902 700-12-55
Dacha Stroyka Dom,Архангельская область,afanasy29.ru,"ул. Дачная, 59, Архангельск, Архангельская обл., Русија, 163062",+7 960 010-14-27
Magazin Stroymaterialov,Архангельская область,vk.com,"Lukinskaya, Arkhangelsk Oblast, Русија, 165150",+7 921 677-07-07
Khozmag,Архангельская область,vk.com,"ул. Суворова, 11, Архангельск, Архангельская обл., Русија, 163001",+7 921 677-07-07
"Torgovyy Tsentr Al'fa, Magazin, Ooo Al'fa",Архангельская область,vk.com,"Октябрьская ул., 1а, Савинский, Архангельская обл., Русија, 164288",+7 921 677-07-07
Khozyain,Архангельская область,vk.com,"Заводская ул., 3а, Октябрьский, Архангельская обл., Русија, 165210",+7 921 677-07-07
Tovary Dlya Remonta,Архангельская область,vk.com,"Магазин ""Муравей"", ул. Ворошилова, 16, Новодвинск, Архангельская обл., Русија, 164900",+7 818 525-68-88
Stroy Market,Архангельская область,vk.com,"Yarensk, Arkhangelsk Oblast, Русија, 165780",+7 911 581-60-01
Domovoy,Архангельская область,vk.com,"ул. Заводская, 43Б, Уемский, Архангельская обл., Русија, 163075",+7 953 936-36-21
Malodvin'ye,Архангельская область,малодвинье.рф,"ул. Чиркова, 5/1, Котлас, Архангельская обл., Русија, 165300",+7 818 372-56-97
"Magazin ""Domovoy""",Архангельская область,vk.com,"ул. Чиркова, д.29, Котлас, Архангельская обл., Русија, 165300",+7 921 482-65-31
Kosmodom,Архангельская область,mks29.ru,"ул. Касаткиной, 13к1, Архангельск, Архангельская обл., Русија, 163002",+7 818 266-47-77
Krepmaster,Архангельская область,krepmarket.ru,"ТК ""На Окружной"", Окружное ш., 13, 2 корпус, Архангельск, Архангельская обл., Русија, 163045",+7 818 242-14-28
Stroybat,Архангельская область,stroybat29.ru,"ул. Шубина, 2, Архангельск, Архангельская обл., Русија, 163001",+7 818 229-45-45
"Хозторг, Магазин № 4",Архангельская область,stroybat29.ru,"ул. Розы Люксембург, 78, Архангельск, Архангельская обл., Русија, 163046",+7 818 220-38-19
"Stroymaterialy, Magazin",Архангельская область,stroybat29.ru,"ул. Пушкина, 100, Вельск, Архангельская обл., Русија, 165150",+7 818 362-63-83
Magazin Stroymarket,Архангельская область,stroybat29.ru,"Plesetsk, Arkhangelsk Oblast, Русија, 164262",+7 818 362-63-83
"Umelyye Ruki, Magazin Stroitel'nykh I Otdelochnykh Materialov",Архангельская область,stroybat29.ru,"ул. Советская, 21, Архангельск, Архангельская обл., Русија, 163020",+7 818 222-68-48
Magazin Megavol't,Архангельская область,mv29.ru,"ул. Ломоносова, 17, Мирный, Архангельская обл., Русија, 164170",+7 965 732-56-54
Khozstroy,Архангельская область,mv29.ru,"Магистральная ул., 43, Архангельск, Архангельская обл., Русија, 163039",+7 818 243-00-65
Ooo Megavol't,Архангельская область,mv29.ru,"ул. Ленина, 76б, Плесецк, Архангельская обл., Русија, 164262",+7 960 006-54-30
Household chemicals,Архангельская область,mv29.ru,"Магистральная ул., 40, Архангельск, Архангельская обл., Русија, 163039",+7 921 076-41-76
Krepmarket,Архангельская область,krepmarket.ru,"просп. Никольский, 56с2, Архангельск, Архангельская обл., Русија, 163020",+7 818 247-15-80
Prof Krep,Архангельская область,krepmarket.ru,"ул. Никитова, 10, Архангельск, Архангельская обл., Русија, 163057",+7 911 568-93-30
"Samodelkin, Magazin Otdelochnykh I Stroitel'nykh Materialov",Архангельская область,krepmarket.ru,"ул. Ярославская ул., 65, Архангельск, Архангельская обл., Русија, 163013",+7 964 302-85-99
Venas,Архангельская область,venus-online.ru,"пр. Заозерный, 4, Северодвинск, Архангельская обл., Русија, 164505",+7 818 452-06-60
Remont 3000,Архангельская область,ремонт3000.рф,"пр. Ленина, 205Г, Онега, Архангельская обл., Русија, 164840",+7 902 700-99-40
Kosmos,Архангельская область,venus-online.ru,"ул. Ломоносова, 68, Северодвинск, Архангельская обл., Русија, 164500",+7 818 458-37-44
Megastroy,Архангельская область,venus-online.ru,"Набережная, 8 а, Березник, Архангельская обл., Русија, 164571",+7 921 297-51-26
Krepezh,Архангельская область,venus-online.ru,"ул. Тимме, 23, Архангельск, Архангельская обл., Русија, 163071",+7 921 297-51-26
"Stroymaterialy ""Komplekt""",Архангельская область,vk.com,"Октябрьский просп., 101, Каргополь, Архангельская обл., Русија, 164110",+7 921 671-17-10
Khoztovary,Архангельская область,vk.com,"ул. Тимме, 12, Архангельск, Архангельская обл., Русија, 163051",+7 931 401-25-88
Master Krepezha,Архангельская область,vk.com,"Ленинградский пр-т., 159, Архангельск, Архангельская обл., Русија, 163015",+7 818 247-03-80
Riforn,Архангельская область,vk.com,"Архангельское ш., д. 29, корп. 1, Северодвинск, Архангельская обл., Русија, 164520",+7 343 288-74-48
"Stroymag, Magazin Stroitel'nykh Materialov",Архангельская область,vk.com,"Никольская ул., 11, Северодвинск, Архангельская обл., Русија, 164512",+7 343 288-74-48
Hilti Строительный Салон,Архангельская область,hilti.ru,"просп. Ломоносова, 13, Офис 16, Архангельск, Архангельская обл., Русија, 163002",+7 818 265-00-56
Rosa,Архангельская область,hilti.ru,"ул. 40-летия Великой Победы, 1, 2 этаж, Архангельск, Архангельская обл., Русија, 163059",+7 818 265-00-56
Dammers,Архангельская область,dammers-les.narod.ru,"ул. Ленина, 29, Архангельск, Архангельская обл., Русија, 163015",+7 818 267-06-07
Al'ternativa Nord Stroybatmarket,Архангельская область,altnord.ru,"ул. Торцева, 2в, стр.1, Северодвинск, Архангельская обл., Русија, 164520",+7 818 456-77-96
"Magazin Stroymaterialov ""Stroyberi""",Архангельская область,altnord.ru,"пр. Ленина, 220, Онега, Архангельская, Русија, 164840",+7 900 920-41-51
Magazin Tovary Dlya Doma,Архангельская область,altnord.ru,"Emetsk, Arkhangelsk Oblast, Русија, 164537",+7 900 920-41-51
Stroydom29,Архангельская область,altnord.ru,"ул. Заводская, 8, Северодвинск, Архангельская обл., Русија, 164505",+7 921 084-80-04
Bum,Архангельская область,altnord.ru,"ул. Гагарина, 46, Архангельск, Архангельская обл., Русија, 163051",+7 818 221-37-50
Motobloki,Архангельская область,altnord.ru,"ул. Карла Маркса, 22, Архангельск, Архангельская обл., Русија, 163000",+7 818 220-83-83
"Stroymarket ""Rimeyk""",Архангельская область,altnord.ru,"ул. Дзержинского, Мирный, Архангельская обл., Русија, 164173",+7 931 417-24-34
Fabrika Okon I Dverey,Архангельская область,vk.com,"Заводская ул., 2, Октябрьский, Архангельская обл., Русија, 165210",+7 921 297-97-99
Domostroy,Архангельская область,домострой29.рф,"Железнодорожная 54а оф.5 2 этаж, Северодвинск, Архангельская обл., Русија, 164520",+7 911 563-43-75
Fastening tools,Архангельская область,крепеж29.рф,"ул. Урицкого, 28, 1 этаж, Архангельск, Архангельская обл., Русија, 163002",+7 818 268-22-73
Yevroprofil',Архангельская область,europrofil29.ru,"Архангельское ш., 16д, Северодвинск, Архангельская обл., Русија, 164520",+7 931 405-70-80
"Torgovyy Tsentr ""Metr""",Архангельская область,europrofil29.ru,"ул. Котрехова, 14 А, Плесецк, Архангельская обл., Русија, 164262",+7 950 661-13-77
"Fire, water and different pipe ...",Архангельская область,stroidom-online.ru,"ул. Поморская, 44, Архангельск, Архангельская обл., Русија, 163000",+7 818 247-93-00
Losk,Архангельская область,stroidom-online.ru,"пр. Победы, 10, 1 этаж, Северодвинск, Архангельская обл., Русија, 164500",+7 818 247-93-00
Umelyy Dachnik,Архангельская область,умелый-дачник.рф,"ул. Горького, 72 Б, Няндома, Архангельская обл., Русија, 164200",+7 952 307-44-44
Mega Ctroy,Архангельская область,vk.com,"Октябрьская ул., Плесецк, Архангельская обл., Русија, 164262",+7 921 483-70-95
Lyubimyy,Архангельская область,vk.com,"ул. Мещерского, 5, Архангельск, Архангельская обл., Русија, 163000",+7 911 674-53-12
Element,Республика Карелия,kondopoga.elementsm.ru,"ул. Максима Горького, 1, Кондопога, Респ. Карелия, Русија, 186225",+7 921 804-57-85
WoodStore Karelia,Республика Карелия,kondopoga.elementsm.ru,"Шуйское ш., д. 12, Петрозаводск, Респ. Карелия, Русија, 185013",+7 911 400-95-58
Tsentr Uyuta Magazin,Республика Карелия,kondopoga.elementsm.ru,"Мурманская ул., 19, Петрозаводск, Респ. Карелия, Русија, 185005",+7 814 259-30-41
Magazin Stroitel'nykh Materialov,Республика Карелия,kondopoga.elementsm.ru,"ул. Ригачина, Петрозаводск, Респ. Карелия, Русија, 185005",+7 814 259-30-41
"Stroymarket ""Papa Doma""",Республика Карелия,papadoma.net,"ул. Бондарева, 50 А, Сортавала, Респ. Карелия, Русија, 186790",+7 814 304-88-16
Magazin Stroymaterialy Ooo Stroykom,Республика Карелия,vk.com,"ул. 8 Марта, дом 9, Сегежа, Респ. Карелия, Русија, 186424",+7 814 317-00-05
Magazin Profil'drev,Республика Карелия,profildrev.ru,"Вытегорское ш., 110, Петрозаводск, Респ. Карелия, Русија, 185034",+7 814 222-10-32
Kgrk,Республика Карелия,profildrev.ru,"ул. Ватутина, 30, Петрозаводск, Респ. Карелия, Русија, 185000",+7 814 222-10-32
"Rus' Biznes, Khozyaystvennyy Magazin",Республика Карелия,profildrev.ru,"Октябрьский пр., 1, Петрозаводск, Респ. Карелия, Русија, 185000",+7 814 270-23-43
"Ladoga-Stroy, Magazin Stroitel'nykh Tovarov",Республика Карелия,profildrev.ru,"ул. Карельская, 42, Сортавала, Респ. Карелия, Русија, 186790",+7 814 302-38-63
Robinzon-1,Республика Карелия,pozern.ru,"ул. Советская, 18, Лахденпохья, Респ. Карелия, Русија, 186734",+7 800 550-51-25
Stroydom Mamont,Республика Карелия,pozern.ru,"Медвежьегорское шоссе, 1, Кондопога, Респ. Карелия, Русија, 186200",+7 814 515-72-11
Stroitel'nyy Dvor,Республика Карелия,ptz-stroy.ru,"ул. Заводская, 10а, Петрозаводск, Респ. Карелия, Русија, 185031",+7 911 403-86-99
Magazin Universalstroy,Республика Карелия,ptz-stroy.ru,"Эссойла, 186137улица Центральная, дом 8а, поселок, Респ. Карелия, Русија, 186137",+7 814 563-30-04
U Yerofeyeva,Республика Карелия,ptz-stroy.ru,"ул. Строителей, 1А, Костомукша, Респ. Карелия, Русија, 186932",+7 814 563-30-04
"Stroitel'nyy Dom, Magazin",Республика Карелия,ptz-stroy.ru,"ул. Бондарева, 4, Сортавала, Респ. Карелия, Русија, 186790",+7 921 458-61-14
Stroybaza Katkov,Республика Карелия,ptz-stroy.ru,"ул. Онежская, 2, Медвежьегорск, Респ. Карелия, Русија, 186352",+7 814 345-75-75
"Shop ""STROYDOM""",Республика Карелия,ptz-stroy.ru,"3, Пудож, Карелия респ., 186150, улица Комсомольская, Пудож, Респ. Карелия, Русија, 186150",+7 814 525-10-25
Profil',Республика Карелия,ptz-stroy.ru,"Ригачина ул. 64, Петрозаводск, Карелия респ., 185005, Петрозаводск, Респ. Карелия, Русија, 185005",+7 814 273-32-80
"Ooo""Stroyarsenal"", Magazin Stroitel'nykh Materialov",Республика Карелия,ptz-stroy.ru,"Хвойный пер., 5, Петрозаводск, Респ. Карелия, Русија, 185002",+7 814 259-20-14
#NAME?,Республика Карелия,ptz-stroy.ru,"ул. Полевая, 34, Олонец, Респ. Карелия, Русија, 186000",+7 814 364-18-17
Formula Construction,Республика Карелия,str-formula.ru,"ул. Ригачина, 33, Петрозаводск, Респ. Карелия, Русија, 185005",+7 814 222-02-30
Stroyelitservis,Республика Карелия,str-formula.ru,"К.Либкнехта ул. 16, Медвежьегорск, Карелия респ., 186350, Медвежьегорск, Респ. Карелия, Русија, 186350",+7 911 400-21-19
Stroitel'nyy Magazin Profil',Республика Карелия,str-formula.ru,"ул. Привокзальная, 19А, Питкяранта, Респ. Карелия, Русија, 186810",+7 911 400-21-19
"Usad'ba, Khozyaystvennyy Magazin",Республика Карелия,str-formula.ru,"ул. Заводская, 26, Петрозаводск, Респ. Карелия, Русија, 185035",+7 814 270-31-21
Maksidom,Республика Карелия,str-formula.ru,"ул. Шотмана, 30, Петрозаводск, Респ. Карелия, Русија, 185001",+7 814 270-31-21
"Магазин ""Delta""",Республика Карелия,str-formula.ru,"ул. Калинина, 9А, Питкяранта, Респ. Карелия, Русија, 186810",+7 921 451-45-45
"Construction hypermarket ""CSK""",Республика Карелия,c-s-k.ru,"ул. Заводская, 4, Петрозаводск, Респ. Карелия, Русија, 185031",+7 814 279-80-15
Stroymaterialy Magazin-Sklad,Республика Карелия,c-s-k.ru,"Санаторная ул. 1, Медвежьегорск, Карелия респ., 186352, Медвежьегорск, Респ. Карелия, Русија, 186350",+7 814 345-70-22
Building Market principle,Республика Карелия,c-s-k.ru,"Kostomuksha, Republic of Karelia, Русија, 186932",+7 921 468-77-72
"Magazin ""Stroymaster""",Республика Карелия,belomorskayapmk.ru,"улица Порт шоссе 25, Беломорск, Респ. Карелия, Русија, 186500",+7 814 375-28-35
"Ooo ""Ksk "", Stroitel'nyye Materialy . Krovlya I Izolyatsiya .",Республика Карелия,kskstroi.ru,"ул. Заводская, 10, Петрозаводск, Респ. Карелия, Русија, 185031",+7 814 259-44-02
"Stroy-ka, Shop",Республика Карелия,vk.com,"ул. Володарского, 12, Олонец, Респ. Карелия, Русија, 186000",+7 814 364-25-76
"ДОМ-ДЕКОР, магазин строительных товаров",Республика Карелия,segeja.mestarf.su,"ул. Гагарина, 3, пом. Н-1, Сегежа, Респ. Карелия, Русија, 186420",+7 814 364-25-76
Uncle Fedor,Республика Карелия,segeja.mestarf.su,"Свирская ул., 10, Петрозаводск, Респ. Карелия, Русија, 185005",+7 814 273-16-54
Armir,Республика Карелия,армир.рф,"ул. Дзержинского, 11, Медвежьегорск, Респ. Карелия, Русија, 186350",+7 800 350-30-76
Stroykrovlya,Республика Карелия,eurocement.ru,"Комсомольская 39, Олонец, Респ. Карелия, Русија, 186000",+7 900 461-51-71
Tssk,Республика Карелия,c-s-k.ru,"ул. Правды, 4, Петрозаводск, Респ. Карелия, Русија, 185005",+7 814 279-80-10
Stroygrad,Республика Карелия,c-s-k.ru,"Сулажгорская ул., 61, Петрозаводск, Респ. Карелия, Русија, 185013",+7 814 277-54-77
Profstroy,Республика Карелия,c-s-k.ru,"Хвойный пер., 5, Петрозаводск, Респ. Карелия, Русија, 185000",+7 921 700-35-12
Tekhnokompleks,Республика Карелия,c-s-k.ru,"ул. Гоголя, 21, Петрозаводск, Респ. Карелия, Русија, 185035",+7 814 227-23-26
"Magazin ""Na Bazarnoy"" Ooo ""Domostroy""",Республика Карелия,vk.com,"Базарная ул., д.1, Сортавала, Респ. Карелия, Русија, 186790",+7 814 304-66-63
"Voskhod, Baza Stroitel'nykh Materialov",Республика Карелия,vk.com,"ул. Машезерская, 7, кв. 36, Петрозаводск, Респ. Карелия, Русија, 185003",+7 814 257-67-79
Stroybaza Salmi,Республика Карелия,vk.com,"ул. Лесная, 13Б, Салми, Респ. Карелия, Русија, 186821",+7 921 308-18-82
Krepozh,Республика Карелия,vk.com,"ул. Карельская, 7, Сортавала, Респ. Карелия, Русија, 186790",+7 921 308-18-82
Magazin Dom-Stroy,Республика Карелия,vk.com,"Unnamed Road, Беломорск, Респ. Карелия, Русија, 186500",+7 921 308-18-82
Krovel'nyy Tsentr,Республика Карелия,кровля-карелия.рф,"386км Р21 ""Кола, Пряжа, Респ. Карелия, Русија, 186120",+7 921 456-66-00
Building yard,Республика Карелия,ptz-stroy.ru,"Шуйское ш., 12, Петрозаводск, Респ. Карелия, Русија, 185000",+7 814 228-06-99
"Domovoy, Khozyaystvennyy Magazin",Республика Карелия,tddomovoy.ru,"Лососинское ш., 21, Петрозаводск, Респ. Карелия, Русија, 185014",+7 814 275-34-47
"Stroymateriyaly ""Master""",Республика Карелия,tddomovoy.ru,"Октябрьское ш., 33а, Кондопога, Респ. Карелия, Русија, 186225",+7 814 275-34-47
"Som, Magazin Otdelochnykh Materialov",Республика Карелия,com-karelia.ru,"Лососинское ш., 26, Петрозаводск, Респ. Карелия, Русија, 185014",+7 921 012-75-93
Строительный магазин Элемент,Республика Карелия,elementsm.ru,"Онежской Флотилии ул. 22, Петрозаводск, Карелия респ., 185000, ул. Онежской флотилии, 22, Петрозаводск, Респ. Карелия, Русија, 185034",+7 921 804-57-81
Istok,Республика Карелия,elementsm.ru,"ул. Зайцева, 38, Петрозаводск, Респ. Карелия, Русија, 185031",+7 814 277-13-98
"Ooo ""Progress""",Республика Карелия,elementsm.ru,"ул. Пограничная, 22, Петрозаводск, Респ. Карелия, Русија, 185000",+7 814 233-06-50
M-N Kontur,Республика Карелия,elementsm.ru,"ул. Октябрьская, 12, Костомукша, Респ. Карелия, Русија, 186931",+7 995 554-74-18
Stroyfurnitura,Республика Карелия,vk.com,"ул. Московская, 20, Петрозаводск, Респ. Карелия, Русија, 185031",+7 814 263-63-63
Kondopozhskiy Shungitovyy Zavod,Республика Карелия,vk.com,"Медвежьегорское ш., 5, Кондопога, Респ. Карелия, Русија, 186200",+7 814 514-30-07
Supplies Shop LLC Remstroykonstruktsiya,Республика Карелия,vk.com,"Louhi, Карелија, Русија, 186660",+7 921 221-92-83
"""Yevrostroy """,Республика Карелия,m.vk.com,"пр. Калинина, 9А, Кондопога, Респ. Карелия, Русија, 186220",+7 900 463-36-46
Instrument Krepezh,Республика Карелия,m.vk.com,"ул. Заводская, Петрозаводск, Респ. Карелия, Русија, 185031",+7 900 463-36-46
«Сантехника»,Республика Карелия,m.vk.com,"ул. Заводская, 17, Кондопога, Респ. Карелия, Русија, 186225",+7 900 463-36-46
"Magazin ""Krepezh""",Республика Карелия,m.vk.com,"Shuya, Republic of Karelia, Русија, 185504",+7 911 401-12-61
shop Home,Республика Карелия,m.vk.com,"пл. Кирова, 4, Сортавала, Респ. Карелия, Русија, 186790",+7 921 455-55-52
Stroy-Market Pelageya,Республика Карелия,m.vk.com,"ул. Гвардейская, 20, Петрозаводск, Респ. Карелия, Русија, 185034",+7 814 252-63-30
"Miko, Magazin",Республика Карелия,business.google.com,"ул. Комсомольская, 3, Кондопога, Респ. Карелия, Русија, 186222",+7 814 517-74-70
"Ooo ""Inter'yer""",Республика Карелия,business.google.com,"ул. Коммунистов, 50/8, Петрозаводск, Респ. Карелия, Русија, 185005",+7 814 517-74-70
Severnyy Dom,Республика Карелия,business.google.com,"ул. Торнева, 5а, Петрозаводск, Респ. Карелия, Русија, 185011",+7 814 253-11-13
Саморезик,Республика Карелия,business.google.com,"Лесной пр., 51, Петрозаводск, Респ. Карелия, Русија, 185014",+7 814 233-00-85
U Tanka,Республика Карелия,business.google.com,"Первомайский пр., 54, Петрозаводск, Респ. Карелия, Русија, 185031",+7 814 270-16-97
Otdelochnyye Materialy Dlya Bani I Sauny,Республика Карелия,business.google.com,"ул. Заводская, 22, Петрозаводск, Респ. Карелия, Русија, 185031",+7 814 270-16-97
Ksk,Республика Карелия,petrozavodsk.ksk24.ru,"Шуйское ш., 20, Петрозаводск, Респ. Карелия, Русија, 185013",+7 814 270-16-97
Profil'drev,Республика Карелия,profildrev.ru,"Лесной пр., 51, Петрозаводск, Респ. Карелия, Русија, 185014",+7 911 400-37-78
Pik,Республика Карелия,profildrev.ru,"ул. Зайцева, 72, 2 этаж, офис 8, Петрозаводск, Респ. Карелия, Русија, 185000",+7 814 259-46-64
Sila,Республика Карелия,tdsila.ru,"Октябрьское ш., 97, Кондопога, Респ. Карелия, Русија, 186223",+7 902 772-69-12
"Universal, Magazin",Республика Карелия,tdsila.ru,"Октябрьское ш., 9, Кондопога, Респ. Карелия, Русија, 186225",+7 814 517-95-91
"Magazin "" Stroitel'""",Республика Карелия,tdsila.ru,"ул. Комсомольская, 22а, Кондопога, Респ. Карелия, Русија, 186225",+7 953 530-91-94
Prommaks,Республика Карелия,prommax.ru,"ул. Пионерская, 71А, Пудож, Респ. Карелия, Русија, 186150",+7 985 300-96-96
Samorezik,Республика Карелия,vk.com,"ул. Ровио, 12А, Петрозаводск, Респ. Карелия, Русија, 185026",+7 814 233-00-85
Avgit,Республика Карелия,vk.com,"ул. Гагарина, 3, Сегежа, Респ. Карелия, Русија, 186420",+7 814 233-00-85
Vyurt Market,Республика Карелия,wuerthmarket.ru,"ул. Онежской флотилии, 22, Петрозаводск, Респ. Карелия, Русија, 185011",+7 814 259-37-93
"Tovary Dlya Doma, Magazin",Республика Карелия,wuerthmarket.ru,"Пролетарская ул., 7, Кондопога, Респ. Карелия, Русија, 186225",+7 814 517-58-82
"Magazin ""Duet""",Республика Карелия,wuerthmarket.ru,"ул. Металлургов, 7, Надвоицы, Респ. Карелия, Русија, 186430",+7 814 315-90-88
Tsentr Metallokrovli - Proizvodstvo I Prodazha Shtaketnika Dlya Zaborov I Ograzhdeniy,Республика Карелия,petrozavodsk.shtaketniki.ru,"Путейская ул., 5, Петрозаводск, Респ. Карелия, Русија, 185504",+7 800 350-90-03
Nort-Kareliya,Республика Карелия,petrozavodsk.shtaketniki.ru,"улица Зайцева 67 стр.1, Петрозаводск, Респ. Карелия, Русија, 185031",+7 921 455-35-17
Zastroyshchik,Республика Карелия,стройсортавала.рф,"ул. Садовая, 30, Сортавала, Респ. Карелия, Русија, 186790",+7 921 011-90-44
Lesnoy Dvorik,Республика Карелия,lesdvorik.ru,"Новосулажгорская ул., 17а, Петрозаводск, Респ. Карелия, Русија, 185013",+7 911 403-73-40
Stroybyt,Республика Карелия,lesdvorik.ru,"ул. Нойбранденбургская, 19, Петрозаводск, Респ. Карелия, Русија, 185034",+7 911 408-50-50
Kvs Komplekt,Республика Карелия,lesdvorik.ru,"ул. Шотмана, 48 а, Петрозаводск, Респ. Карелия, Русија, 185035",+7 814 274-18-19
Instrument Magazin Ip Kodintsov A.v.,Республика Карелия,lesdvorik.ru,"пр. Александра Невского, 67, Петрозаводск, Респ. Карелия, Русија, 185007",+7 814 256-29-57
"Magazin ""Dom""",Республика Карелия,lesdvorik.ru,"ул. Воронина, 8, Беломорск, Респ. Карелия, Русија, 186500",+7 814 256-29-57
Gabbro-Kareliya,Республика Карелия,lesdvorik.ru,"ул. Повенецкая, 16, Офис 2, Петрозаводск, Респ. Карелия, Русија, 185003",+7 814 263-48-09
"Onlayn-Gipermarket ""Kauppi""",Республика Карелия,kauppi.ru,"Первомайская ул., 7, Костомукша, Респ. Карелия, Русија, 186931",+7 814 595-20-07
Wurth Market (Wurth),Республика Карелия,wuerthmarket.ru,"ш. Горняков, 153, Костомукша, Респ. Карелия, Русија, 186930",+7 814 595-17-05
Plitka,Республика Карелия,wuerthmarket.ru,"ул. Варламова, Петрозаводск, Респ. Карелия, Русија, 185005",+7 814 595-17-05
Petrokomplekt,Республика Карелия,wuerthmarket.ru,"ул. Заводская, д.5, Петрозаводск, Респ. Карелия, Русија, 185031",+7 814 271-19-86
"Ooo ""Onezhskiy Monolit""",Республика Карелия,wuerthmarket.ru,"Казарменская ул., 31, офис № 16, Петрозаводск, Респ. Карелия, Русија, 185030",+7 953 534-30-50
"Trading house ""Building materials""",Ленинградская область,td-sm35.ru,"Стройматериалы на Белявской, ул. Ленинградская, 51, Вологда, Вологодская обл., Русија, 160017",+7 911 047-06-61
"Optovo-Roznichnyy Tsentr""Stroitel'nyy Dvor """,Вологодская область,vk.com,"пл. Свободы, 7, Сокол, Вологодская обл., Русија, 162130",+7 900 505-80-80
Stroitel'naya Barakholka,Вологодская область,vk.com,"ул. Ленинградская, 95, Вологда, Вологодская обл., Русија, 160034",+7 900 505-80-80
Zavkhoz,Вологодская область,vk.com,"ул. Клубова, 25/25, Вологда, Вологодская обл., Русија, 160000",+7 817 221-78-36
Оптима+,Вологодская область,vk.com,"yлица Карла Маркса, 89, Вологда, Вологодская обл., Русија, 160029",+7 817 227-99-27
Tiberg,Вологодская область,tiberg.ru,"ул. Ленинградская, 71, ДЦ «Парус», Вологда, Русија, 160017",+7 817 227-99-27
МЕТРИКА № 62,Вологодская область,tiberg.ru,"Окружное ш., 12, Вологда, Вологодская обл., Русија, 160028",+7 800 775-77-33
Stroymaster,Вологодская область,tiberg.ru,"Ленина, 5А, Молочное, Вологодская обл., Русија, 160555",+7 911 511-30-57
Stroitel'nyy Dvorik,Вологодская область,tiberg.ru,"Связистов ул, 10А, Сямжа, Вологодская обл., Русија, 162220",+7 900 502-02-23
Park,Вологодская область,tiberg.ru,"ТЦ ""Макси"", ул. Некрасова, 23, Вологда, Вологодская обл., Русија, 160019",+7 817 251-64-08
Shurup,Вологодская область,tiberg.ru,"ул. Возрождения, д. 49, Вологда, Вологодская обл., Русија, 160000",+7 999 791-26-21
Master,Вологодская область,tiberg.ru,"ул. Орешкова, 9, Сокол, Вологодская обл., Русија, 162138",+7 999 791-26-21
Vso Dlya Stroitel'stva I Remonta,Вологодская область,tiberg.ru,"ул. Ленинградская, 61, Вологда, Вологодская обл., Русија, 160017",+7 817 252-90-84
"Aplayn, Optovo-Roznichnyy Tsentr",Вологодская область,apline35.ru,"Пошехонское ш., 18, Вологда, Вологодская обл., Русија, 160022",+7 817 254-15-98
Stroymarket Lider,Вологодская область,lider35.ru,"ул. Преображенского, 28с6, Вологда, Вологодская обл., Русија, 160000",+7 817 252-05-20
"Magazin ""Raduzhnyy""",Вологодская область,vk.com,"ул. Коммунистическая, 72, Белозерск, Вологодская обл., Русија, 161200",+7 900 542-54-06
Akson,Вологодская область,akson.ru,"ул. Рыбинская, 59, Череповец, Вологодская обл., Русија, 162609",+7 820 220-18-88
Evrika,Вологодская область,akson.ru,"ул. Герцена, 118, Вологда, Вологодская обл., Русија, 160000",+7 921 234-70-73
Ideas for home,Вологодская область,idd35.ru,"ул. Преображенского, 35, Кириллов, Вологодская обл., Русија, 161100",+7 817 573-20-10
"Baza ""Gvozd'""",Вологодская область,idd35.ru,"ул. Химиков, 7, Череповец, Вологодская обл., Русија, 162600",+7 820 224-83-77
Vologodskiy Tsentr Inertnykh Materialov,Вологодская область,idd35.ru,"ул. Мира, 82, Вологда, Вологодская обл., Русија, 160009",+7 817 221-51-29
"Ooo ""Stroygarant""",Вологодская область,stroygarant-35.ru,"2А, Яконское, Вологодская обл., Русија, 162677",+7 820 249-00-92
"Ooo ""Lesotek""",Вологодская область,stroygarant-35.ru,"ул. Преображенского, д. 22А, Вологда, Вологодская обл., Русија, 160025",+7 921 127-56-89
Old Khottabych,Архангельская область,stroygarant-35.ru,"ул. Архангельская, 15А, Череповец, Вологодская обл., Русија, 162603",+7 820 226-09-79
Tsentrsnab,Вологодская область,stroygarant-35.ru,"Зосимовская ул., 7, Вологда, Вологодская обл., Русија, 160000",+7 817 272-40-22
Magazin Tekhtsentr,Вологодская область,stroygarant-35.ru,"Парковая, 6д, Сямжа, Вологодская обл., Русија, 162220",+7 921 061-87-43
Sotsial'nyy,Вологодская область,stroygarant-35.ru,"ул. Текстильщиков, 16, Вологда, Вологодская обл., Русија, 160033",+7 817 274-38-01
Festen,Вологодская область,сайдингввологде.рф,"ул. Преображенского, 22Б, Вологда, Вологодская обл., Русија, 160026",+7 921 122-12-22
"Stroitel'nyy Tsentr Ooo ""Stroygarant""",Вологодская область,stroygarant-35.ru,"ул. пр-т. Победы, 13, Череповец, Вологодская обл., Русија, 160000",+7 820 252-00-13
Idei Dlya Doma,Вологодская область,stroygarant-35.ru,"Sokol, Vologda Oblast, Русија, 162130",+7 820 252-00-13
Plintus-M,Вологодская область,plintus-m.ru,"Окружное ш., 18, Вологда, Вологодская обл., Русија, 160019",+7 911 501-26-06
Skorpion,Вологодская область,plintus-m.ru,"Благовещенская ул., 68, Вологда, Вологодская обл., Русија, 160004",+7 911 501-26-06
"Dom I Vso, Chto V Nom",Вологодская область,plintus-m.ru,"ул. Мира, 40, Вологда, Вологодская обл., Русија, 160009",+7 817 272-25-57
Khozmarket,Вологодская область,vk.com,"Ленина, 12, Молочное, Вологодская обл., Русија, 160555",+7 900 552-99-57
ИДЕЯ+,Вологодская область,vk.com,"ул. Маршала Конева, 24, Вологда, Вологодская обл., Русија, 160032",+7 817 273-95-11
Stroyopttorg Vystavochnyy Zal,Вологодская область,tdsot.ru,"ул. Преображенского, 18, Вологда, Вологодская обл., Русија, 160026",+7 817 252-02-02
Hammer and sickle,Вологодская область,tdsot.ru,"ул. Заречная, 3, Череповец, Вологодская обл., Русија, 162600",+7 820 255-65-43
Vologodskaya Kommercheskaya Kompaniya,Вологодская область,lider35.ru,"ул. Преображенского, 28 строение 1, Вологда, Вологодская обл., Русија, 160026",+7 817 252-00-51
"Stroymaterialy Plyus, Ooo",Вологодская область,nerud35.ru,"Окружное ш., 1, Вологда, Вологодская обл., Русија, 160028",+7 921 129-72-91
Леруа Мерлен,Вологодская область,cherepovets.leroymerlin.ru,"просп. Октябрьский, 23, Череповец, Вологодская обл., Русија, 162609",+7 800 700-00-99
Khozyayushka,Вологодская область,cherepovets.leroymerlin.ru,"ул. Мира, 42, Вологда, Вологодская обл., Русија, 160001",+7 800 700-00-99
Skht,Вологодская область,cherepovets.leroymerlin.ru,"Syamzha, Vologda Oblast, Русија, 162220",+7 800 100-00-71
Lotos,Вологодская область,cherepovets.leroymerlin.ru,"ул. Моченкова, 12, Череповец, Вологодская обл., Русија, 162600",+7 820 229-52-93
Keramik Grup,Вологодская область,керамикгруп.рф,"Фетисов Арены, СТ Ландыш 67 район Спутник и, Владивосток, Вологодская обл., Русија, 162265",+7 908 992-00-13
Zvezdnyy,Вологодская область,strojmag35.ru,"просп. Советский, 81, Череповец, Вологодская обл., Русија, 162622",+7 820 255-07-58
"Td ""Snabzhenets""",Вологодская область,volsnab.ru,"ул. Саммера, 62, Вологда, Вологодская обл., Русија, 160014",+7 817 227-37-01
Vash Dom,Вологодская область,volsnab.ru,"Syamzha, Vologda Oblast, Русија, 162220",+7 817 227-37-01
Kontinent,Вологодская область,kontinent.ru,"ул. Горького, 129А, Вологда, Вологодская обл., Русија, 160029",+7 817 228-59-10
Novyy Vek,Вологодская область,vek-vologda.ru,"ул. Возрождения, д. 47, Вологда, Вологодская обл., Русија, 160028",+7 817 251-07-60
Zvozdnyy,Вологодская область,strojmag35.ru,"просп. Шекснинский, 25В, Череповец, Вологодская обл., Русија, 162609",+7 820 220-11-00
Masterok,Вологодская область,vk.com,"32, Ленинградская ул., Харовск, Вологодская обл., Русија, 162250",+7 921 062-44-60
Instrumen,Вологодская область,vk.com,"ул. Пионерская, 28/6, Череповец, Вологодская обл., Русија, 162604",+7 911 506-05-86
Magazin Master,Вологодская область,vk.com,"161560, Россия, ул. Пограничная, 38, Тарногский Городок, Вологодская обл., Русија, 161560",+7 911 506-05-86
Remontik,Вологодская область,vk.com,"yлица Карла Маркса, 91/1, Вологда, Вологодская обл., Русија, 160029",+7 911 506-05-86
Aspekt,Вологодская область,vk.com,"Ust'e, Vologda Oblast, Русија, 161140",+7 817 532-22-58
Instrument,Вологодская область,vk.com,"ТЦ ""Умелец"", ул. Воровского, 29, Вологда, Вологодская обл., Русија, 160000",+7 817 221-01-60
Tigi Knauf,Вологодская область,vk.com,"Первомайская ул., 15, Череповец, Вологодская обл., Русија, 162612",+7 820 224-70-92
Magazin Khoroshiy Ip Nekrasov M.o.,Вологодская область,maxnekrasov1998060.wixsite.com,"ул. Первомайская, дом 3, Липин Бор, Вологодская обл., Русија, 161250",+7 953 521-78-80
"Stolyarof""",Вологодская область,maxnekrasov1998060.wixsite.com,"ул. Калинина, 30, Сокол, Вологодская обл., Русија, 162139",+7 953 521-78-80
Parket-Tsentr,Вологодская область,maxnekrasov1998060.wixsite.com,"ул. Маршала Конева, 24, Вологда, Вологодская обл., Русија, 160032",+7 817 274-23-78
Black cat,Вологодская область,maxnekrasov1998060.wixsite.com,"ул. Северная, 3, Цокольный этаж, Вологда, Вологодская обл., Русија, 160000",+7 820 250-83-81
Sarayka,Вологодская область,maxnekrasov1998060.wixsite.com,"Пошехонское шоссе 48, Вологда, Вологодская обл., Русија, 160000",+7 817 271-63-82
Ekonomstroy,Вологодская область,econom35.ru,"ул. Пионерская, 16А, Череповец, Вологодская обл., Русија, 162600",+7 820 273-37-34
master house,Вологодская область,motoblok-vologda.ru,"Козленская ул., 134, Вологда, Вологодская обл., Русија, 160012",+7 817 275-73-37
shop Ekonomstroy,Вологодская область,econom35.ru,"ул. максима горького, 85, Череповец, Вологодская обл., Русија, 162614",+7 820 250-60-40
Home master,Вологодская область,econom35.ru,"ТК ""Мир"", ул. пр-т. Победы, 95, Череповец, Вологодская обл., Русија, 162605",+7 900 535-36-06
Partner,Вологодская область,econom35.ru,"Первомайская ул., 42, Череповец, Вологодская обл., Русија, 162612",+7 820 224-14-17
Torgovyy Tsent Sever,Архангельская область,econom35.ru,"Архангельская ул., 23, Харовск, Вологодская обл., Русија, 162250",+7 817 322-23-02
Finnkolor,Вологодская область,finncolor.ru,"ул. Чернышевского, 120г, Вологда, Вологодская обл., Русија, 160019",+7 817 270-02-57
Pervyy Stroitel'nyy Komissionnyy,Вологодская область,vk.com,"ул. Гагарина, 89, Вологда, Вологодская обл., Русија, 160028",+7 817 250-29-02
Teplosfera,Вологодская область,teplosfera.ru,"ул. Гоголя, 60А, Череповец, Вологодская обл., Русија, 162603",+7 820 226-22-62
Santekhnika,Вологодская область,teplosfera.ru,"ул. Преображенского, 28, Вологда, Вологодская обл., Русија, 160026",+7 820 226-22-62
Tts Domovonok,Вологодская область,teplosfera.ru,"ул, Молодежная, 26, Сямжа, Вологодская обл., Русија, 162220",+7 953 500-46-53
Shop Building Materials,Псковская область,orbita-stroy.pskov.ru,"Строительный центр ""Орбита"", Инженерная ул., 11А, Псков, Псковская обл., Русија, 180021",+7 811 279-33-85
Novostroy Magazin Stroitel'nykh Materialov,Псковская область,orbita-stroy.pskov.ru,"ул. 25 Октября, 91/93, Остров, Псковская обл., Русија, 181350",+7 900 992-40-03
"Sneus, Magazin Stroitel'nykh Tovarov",Псковская область,orbita-stroy.pskov.ru,"ул. Леона Поземского, 92, Псков, Псковская обл., Русија, 180680",+7 921 215-29-80
"EUROMIX, магазин строительных материалов",Псковская область,orbita-stroy.pskov.ru,"корп. 1, ул. Леона Поземского, 123-а, 1 этаж, рынок Невский, Псков, Псковская обл., Русија, 180000",+7 921 000-29-02
"Stroitel'nyy Magazin ""Kvartalstroy""",Псковская область,orbita-stroy.pskov.ru,"Коммунальная ул., 86, Псковская обл., Русија, 182330",+7 921 000-29-02
Stroitel'nyy Magazin Raypo,Псковская область,pskovcoop.ru,"Novorzhev, Pskov Oblast, Русија, 182440",+7 921 000-29-02
Prorab,Псковская область,pskovcoop.ru,"ул. Ижорского Батальона, 24, Псков, Псковская обл., Русија, 180020",+7 811 260-21-00
"999 Melochey, Magazin Stroitel'nykh Tovarov",Псковская область,pskovcoop.ru,"Алмазная ул., 3, Псков, Псковская обл., Русија, 180680",+7 811 279-35-43
Giperstroy60 Almaznaya Stroitel'nyy Magazin,Псковская область,pskovcoop.ru,"ул. Леона Поземского, 92, Пав. 28, Псков, Псковская обл., Русија, 180006",+7 811 270-05-26
"Magazin Stroykhoztovarov ""Rusich""",Псковская область,pskovcoop.ru,"ул. Энергетиков, 4, Родина, Псковская обл., Русија, 182711",+7 811 270-05-26
"Stroitel'nyy Magazin ""Uyut""",Псковская область,pskovcoop.ru,"Рабоче-Крестьянская ул., 67, Новоржев, Псковская обл., Русија, 182440",+7 900 998-34-25
999 details,Псковская область,999-m.ru,"Строительный рынок на Алмазной, ул. Леона Поземского, 92к7, отдел 7, Псков, Псковская обл., Русија, 180006",+7 811 279-36-97
"Magazin Stroitel'nykh Materialov, Ip Khmel'nitskaya Ye.ye.",Псковская область,999-m.ru,"ул. Леона Поземского, 92, Псков, Псковская обл., Русија, 180000",+7 953 241-28-80
"Yenot, Internet-Magazin Stroitel'nykh Materialov",Псковская область,999-m.ru,"Коммунальная ул., 52, Псков, Псковская обл., Русија, 180024",+7 911 373-67-01
Stroybaza Na Belinskogo,Псковская область,stroybaza60.ru,"ул. Белинского, 74А, Псков, Псковская обл., Русија, 180019",+7 811 275-48-60
"Ruletka, Magazin Stroitel'nykh Tovarov",Псковская область,stroybaza60.ru,"ул. Воровского, 6, Псков, Псковская обл., Русија, 180000",+7 811 266-50-32
"Shop ""Construction""",Псковская область,stroybaza60.ru,"ул. Бундзена, 182710, Псковская обл., Русија, 182711",+7 811 369-38-00
"Magazin Stroitel'nykh Tovarov, Ip",Псковская область,stroybaza60.ru,"ул. Мебельная, 1-А, Порхов, Псковская обл., Русија, 182620",+7 811 342-44-52
Orbita,Псковская область,orbita-stroy.pskov.ru,"Инженерная ул., 11А, Псков, Псковская обл., Русија, 180021",+7 811 253-87-06
Stroitel'nyye I Otdelochnyye Materialy,Псковская область,orbita-stroy.pskov.ru,"ул.Набережная, д.12а, Новоржев, Псковская обл., Русија, 182440",+7 900 991-02-01
Magazin Rezonans,Псковская область,orbita-stroy.pskov.ru,"Псковская ул., 12, Пыталово, Псковская обл., Русија, 181410",+7 811 472-20-90
Stroykrep,Псковская область,msm60.ru,"ТК ""Мир строительных материалов на Алмазной"", ул. Леона Поземского, 92, павильон 28, секция 4, Псков, Псковская обл., Русија, 180006",+7 811 270-03-58
Udachnyy Gnom,Псковская область,msm60.ru,"Железнодорожная ул., 44А, Псков, Псковская обл., Русија, 180004",+7 811 273-10-47
Rakurs,Псковская область,msm60.ru,"Pижский пр-т., 9, Псков, Псковская обл., Русија, 180007",+7 811 256-43-40
Stroyka S Nami,Псковская область,msm60.ru,"Октябрьский пр., 54, Псков, Псковская обл., Русија, 180004",+7 960 225-05-05
Практик,Псковская область,praktik60.ru,"ул. Ижорского Батальона, 24, Псков, Псковская обл., Русија, 180020",+7 811 270-07-70
Stroybaza Na Almaznoy,Псковская область,msm60.ru,"ул. Леона Поземского дом92, корп. 1 92, ул. Леона Поземского, 92, Псков, Псковская обл., Русија, 180006",+7 921 215-71-12
Rezonans,Псковская область,rezonans60.ru,"ул. Николая Васильева, 69А, Псков, Псковская обл., Русија, 180014",+7 811 262-34-30
"Peredelkino, Magazin Stroitel'nykh Tovarov",Псковская область,rezonans60.ru,"Заводской пер., 6, Остров, Псковская обл., Русија, 181350",+7 811 523-41-47
Praktik,Псковская область,praktik60.ru,"Neelovo-1, Pskov Oblast, Русија, 180502",+7 911 367-62-81
"Stroybaza ""Starorusskaya""",Псковская область,stroybazaporhov.ru,"Поиск по сайту, Старорусская ул., 37, Порхов, Псковская обл., Русија, 182620",+7 911 884-08-68
Vso I Crazu,Псковская область,stroybazapskov.ru,"ул. Советской Армии, 60, Псков, Псковская обл., Русија, 180004",+7 811 273-11-57
"Stroitel'nyy Magazin ""Yevroremont"" Keramicheskaya Plitka, Laminat, Toplyy Pol Termoregulyatory, Dveri.",Псковская область,vk.com,"ул. Леона Поземского дом92, корп. 1 92, Псков, Псковская обл., Русија, 180006",+7 900 990-00-87
I.p.sokolov,Псковская область,vk.com,"ул. 1 Мая, 19, Остров, Псковская обл., Русија, 181350",+7 811 523-29-86
"Master Plyus, Magazin Stroitel'nykh Tovarov",Псковская область,vk.com,"Красной Армии пл., 1, Порхов, Псковская обл., Русија, 182620",+7 811 342-18-08
"Magazin ""Domina""",Псковская область,vk.com,"ул. Леона Поземского, 92, Псков, Псковская обл., Русија, 180006",+7 911 392-42-48
Ooo Promekstra,Псковская область,prom-extra.ru,"ул. Леона Поземского, 92, Псков, Псковская обл., Русија, 180006",+7 811 270-07-30
Delovoy,Псковская область,delo60.ru,"ул. Гагарина, д. 13В, Псков, Псковская обл., Русија, 180004",+7 911 692-58-04
Stroymarket ''gvozd''',Псковская область,delo60.ru,"ул. 25 Октября, 6, Остров, Псковская обл., Русија, 181350",+7 911 692-58-04
Arkada,Псковская область,2gis.ru,"ул. Чехова, 1А, Псков, Псковская обл., Русија, 180016",+7 811 257-61-45
Stroyservis,Псковская область,2gis.ru,"ТК ""Мир строительных материалов"" на Алмазной, ул. Леона Поземского, 92, павильон 2, секция 22, Псков, Псковская обл., Русија, 180006",+7 811 279-30-36
Stroybaza Rizhskaya,Псковская область,2gis.ru,"Рижская ул., дом 11, Печоры, Псковская обл., Русија, 181500",+7 811 482-20-84
Magazin Instrumentov I Sadovoy Tekhniki,Псковская область,2gis.ru,"ул. Псковская, 5, Печоры, Псковская обл., Русија, 181500",+7 811 482-20-84
"Tsentr Stroiteley I Sdovodov ""Rezonans-Dachnik""",Псковская область,2gis.ru,"ул. Воровского, Псков, Псковская обл., Русија, 180000",+7 811 266-78-73
Stroyrynok,Псковская область,2gis.ru,"Алмазная ул., 3, Псков, Псковская обл., Русија, 180006",+7 811 279-36-97
Kvartalstroy,Псковская область,vk.com,"1мая, 19а, Опочка, Псковская обл., Русија, 182330",+7 911 691-66-61
Vso Dlya Remonta I Novostroyki,Псковская область,vk.com,"ул. Яна Фабрициуса, 3А, Псков, Псковская обл., Русија, 180017",+7 911 382-40-36
Mezhventsovyy Uteplitel' Dlya Srubov Domov I Ban',Псковская область,vk.com,"ул. Шоссейная, 1А, Псков, Псковская обл., Русија, 180006",+7 911 890-78-39
СтройEvroБлок,Псковская область,vk.com,"Pskov, Pskov Oblast, Русија, 180006",+7 960 222-33-43
Stroyka,Псковская область,stroikaost.ru,"ул. Карла Маркса, 9, Остров, Псковская обл., Русија, 181350",+7 981 352-07-05
"""Yevroremont""",Псковская область,stroikaost.ru,"Pskov, Pskov Oblast, Русија, 180006",+7 900 990-00-87
Magazin Krepezh,Псковская область,stroikaost.ru,"ул. Леона Поземского, 102, Псков, Псковская обл., Русија, 180006",+7 811 250-00-96
"Ooo ""Samstroy""",Псковская область,stroikaost.ru,"ТК ""Мир строительных материалов"" на Алмазной, ул. Леона Поземского, 92, отдел 2А, Псков, Псковская обл., Русија, 180006",+7 911 691-13-25
Pilomaterialy,Псковская область,stroikaost.ru,"Unnamed Road, Мешток, Псковская обл., Русија, 182440",+7 921 219-97-40
Stroymaterialy I Mebel',Псковская область,stroikaost.ru,"Интернациональная ул., Дедовичи, Псковская обл., Русија, 182710",+7 921 219-97-40
Lesotorgovaya Baza Sm Pskov,Псковская область,smles-pskov.ru,"ул. Леона Поземского, 92/29, Псков, Псковская обл., Русија, 180016",+7 921 609-53-76
"Magazin Krepezha I Ruchnogo Instrumenta, Ooo Al'fa Krepezh",Псковская область,smles-pskov.ru,"г, ул. Леона Поземского, дом № 123А, Псков, Псковская обл., Русија, 180006",+7 811 272-27-18
Teplokhranitel',Псковская область,teplohranitel.com,"ТК ""Мир строительных материалов на Алмазной"", ул. Леона Поземского, 92к5, Псков, Псковская обл., Русија, 180006",+7 811 279-30-35
shop Hammer,Псковская область,rus.sika.com,"Белорусская ул., 20, Пыталово, Псковская обл., Русија, 181410",+7 921 504-10-20
Metiz,Псковская область,pskovmetiz.ru,"Гражданская ул., 5, Псков, Псковская обл., Русија, 180000",+7 811 262-19-20
Partnor,Псковская область,santekspskov.ru,"Pижский пр-т., 7/31А, 2 этаж, Псков, Псковская обл., Русија, 180007",+7 811 256-93-77
Pskovskiy Dom,Псковская область,pskovmetiz.ru,"Коммунальная ул., 73А, Псков, Псковская обл., Русија, 180024",+7 811 255-82-61
Elektromarket,Псковская область,electromarket-im.ru,"ул. Юбилейная, 40А, Псков, Псковская обл., Русија, 180024",+7 921 114-65-67
"Filial Ooo ""Yarmarka Parketa"" V G.pskov",Псковская область,parket-sale.ru,"ул. Рокоссовского, 40В, Псков, Псковская обл., Русија, 180025",+7 811 258-00-59
Magiya Ognya - G. Ostrov,Псковская область,mirpechek.ru,"ул. Урицкого, д.5, Остров, Псковская обл., Русија, 181350",+7 905 295-53-95
Kirpichnyy Tsentr,Псковская область,braerpskov.ru,"ул. Леона Поземского, 123а, к.1, Псков, Псковская обл., Русија, 180020",+7 811 275-11-25
StalinPskov,Псковская область,stalinpskov.ru,stalinpskov.ru,+7 911 371-90-20
Tsentr Stroitel'nykh Tekhnologiy,Псковская область,stalinpskov.ru,"Красноармейская ул., 26, Псков, Псковская обл., Русија, 180016",+7 811 272-21-20
"Zavod Krovel'nykh I Fasadnykh Sistem, Magazin-Salon, Porkhov",Псковская область,centerkrovel.ru,"Профсоюзная ул., 16б, Порхов, Псковская обл., Русија, 182620",+7 811 342-48-00
Kontinent Dverey,Псковская область,doors60.ru,"ул. Леона Поземского, Псков, Псковская обл., Русија, 180006",+7 992 291-92-44
Piramida,Псковская область,doors60.ru,"ТК ""Мир строительных материалов на Алмазной"", ул. Леона Поземского, 92к1, павильон 1, секция 5, Псков, Псковская обл., Русија, 180006",+7 811 279-35-69
Domolyuks,Псковская область,doors60.ru,"ТК ""Мир строительных материалов на Алмазной"", ул. Леона Поземского, 92, 4 павильон, отдел 39, Псков, Псковская обл., Русија, 180006",+7 811 279-35-71
Stroyza,Псковская область,msm60.ru,"ТК ""Мир строительных материалов на Алмазной, ул. Леона Поземского, 92к1, Псков, Псковская обл., Русија, 180006",+7 811 279-35-76
Magiya Ognya - G. Opochka,Псковская область,mirpechek.ru,"ул. 1 Мая, д.19, Опочка, Псковская обл., Русија, 182330",+7 811 382-44-86
BOSICOM,Псковская область,vk.com,"ул. Калинина, Остров, Псковская обл., Русија, 181350",+7 953 251-82-81
Stroybaza Rezonans,Псковская область,rezonans60.ru,"Псковский пер., Псков, Псковская обл., Русија, 180006",+7 811 270-07-39
"Oboyma, Magazin Oboyev",Псковская область,rezonans60.ru,"Конная ул., 2, Псков, Псковская обл., Русија, 180000",+7 811 256-03-29
STIHL,Псковская область,vk.com,"ул. 128 Стрелковой Дивизии, 13, Псков, Псковская обл., Русија, 180017",+7 811 272-32-01
Al'fa-Layn,Псковская область,vk.com,"ТК ""Мир строительных материалов на Алмазной"", ул. Леона Поземского, 92, павильон 1, секция 17А, Псков, Псковская обл., Русија, 180006",+7 811 260-86-50
"Ooo ""Giperstroy60""",Псковская область,vk.com,"ул. Леона Поземского, 123-А, Офис 4, Псков, Псковская обл., Русија, 180006",+7 811 275-13-39
Santeks,Псковская область,vk.com,"ТК ""Мир строительных материалов на Алмазной, ул. Леона Поземского, 92к3, отдел 29, Псков, Псковская обл., Русија, 180006",+7 811 279-31-36
areal plus,Псковская область,vk.com,"ул. Юбилейная, 36, Псков, Псковская обл., Русија, 180016",+7 811 255-33-30
Stroybaza Ugrada,Псковская область,ngorod60.ru,"д.Уграда 26, Псков, Псковская обл., Русија, 180502",+7 811 250-02-50
Stal' Td,Псковская область,staltd.ru,"ТК ""Мир строительных материалов"" на Алмазной, ул. Леона Поземского, 92к29, павильон 29, Псков, Псковская обл., Русија, 180006",+7 811 270-06-22
"Magazin ""Parma""",Псковская область,staltd.ru,"Советская ул., 9Б, Бежаницы, Псковская обл., Русија, 182840",+7 811 412-19-39
Мастер,Псковская область,masterts.ru,"Рижский проспект, 88, Псков, Псковская обл., Русија, 180024",+7 811 244-44-45
Derevyannyy Ray,Псковская область,masterts.ru,"ТК ""Мир строительных материалов на Алмазной"", ул. Леона Поземского, 92, Псков, Псковская обл., Русија, 180006",+7 811 279-35-79
"Ooo ""Profsantekh""",Псковская область,masterts.ru,"ТК ""Мир строительных материалов на Алмазной"", ул. Леона Поземского, 92, 20 павильон, Псков, Псковская обл., Русија, 180006",+7 811 279-35-79
"Zavod Krovel'nykh I Fasadnykh Sistem, Magazin-Salon, Pushkinskiye Gory",Псковская область,centerkrovel.ru,"ул. Ленина, 18, Пушкинские Горы, Псковская обл., Русија, 181370",+7 811 469-30-10
Keramiks,Псковская область,vk.com,"Алмазная ул., 1, Псков, Псковская обл., Русија, 180006",+7 811 270-24-00
Zelenyy Mir,Псковская область,zelmir12.ru,"Старорусская ул., 37, Порхов, Псковская обл., Русија, 182620",+7 911 884-63-62
Домострой,Псковская область,zelmir12.ru,"Вокзальная ул., 48, Псков, Псковская обл., Русија, 180004",+7 811 262-28-71
Dachnaya Pokupka,Псковская область,u-pokupka.ru,"ТК ""Мир строительных материалов на Алмазной"", ул. Леона Поземского, 92, 4 павильон, отдел 36А, Псков, Псковская обл., Русија, 180006",+7 811 270-20-44
"Center for roofing and facade systems, Shop - Salon",Псковская область,centerkrovel.ru,"ул. Леона Поземского, д. 92 ТК «Мир строительных материалов», павильон № 7, Псков, Псковская обл., Русија, 180000",+7 811 222-04-44
Vse Dlya Doma,Псковская область,centerkrovel.ru,"ул. Кузбасской Дивизии, дом 19, Псков, Псковская обл., Русија, 180024",+7 800 301-88-23
"Stroitel'nyy Magazin ""Usad'ba""",Новгородская область,vk.com,"Октябрьская ул., 4, Малая Вишера, Новгородская обл., Русија, 174260",+7 931 850-57-97
Tetris,Новгородская область,tetrisvn.ru,"ул. Нехинская, 12, Великий Новгород, Новгородская обл., Русија, 173000",+7 816 228-00-00
Komfort,Новгородская область,bazacomfort.ru,"Сырковское ш., 10, Великий Новгород, Новгородская обл., Русија, 173008",+7 816 262-18-43
Stroitel'nyy-2,Новгородская область,bazacomfort.ru,"Khvoynaya, Novgorod Oblast, Русија, 174581",+7 816 262-18-43
Stroybaza Pankovka,Новгородская область,bazacomfort.ru,"17, п, Строительная ул., Панковка, Новгородская обл., Русија, 173526",+7 816 268-53-53
Kompozit,Псковская область,kompozitvn.ru,"Псковская, 59А, Великий Новгород, Новгородская обл., Русија, 173015",+7 816 277-80-41
"Remeslo, Baza Stroitel'nykh Materialov",Новгородская область,kompozitvn.ru,"ул. Революции, 89, Малая Вишера, Новгородская обл., Русија, 174260",+7 816 603-60-13
"Magazin ""Stroitel'""",Новгородская область,shop.kamen53.ru,"Новгородская ул., 68, Сольцы, Новгородская обл., Русија, 175040",+7 953 906-75-08
"Magazin Stroitel'nykh Tovarov ""Stroitel'naya 2""",Новгородская область,shop.kamen53.ru,"ул. Строительная, 2, Парфино, Новгородская обл., Русија, 175130",+7 816 506-32-63
"Stroitel', Magazin",Новгородская область,shop.kamen53.ru,"пл. Свободы, 3-А, Валдай, Новгородская обл., Русија, 175400",+7 816 662-43-60
Gamma,Новгородская область,shop.kamen53.ru,"ул. Щусева, 7А, Великий Новгород, Новгородская обл., Русија, 173008",+7 816 264-48-40
Construction base,Новгородская область,shop.kamen53.ru,"пр. Александра Корсунова, 14с, Великий Новгород, Новгородская обл., Русија, 173025",+7 816 299-84-93
Мегаполис,Новгородская область,megapolis53.ru,"ул. Рабочая, 11 корпус 1, Великий Новгород, Новгородская обл., Русија, 173000",+7 816 268-50-48
Stroysnab,Новгородская область,stroysnab.com,"ул. Рабочая, 39, Великий Новгород, Новгородская обл., Русија, 173008",+7 816 264-05-70
Slavyanskiy Stil',Новгородская область,slavyanstil.ru,"49К-13, Малая Вишера, Новгородская обл., Русија, 174260",+7 921 024-39-83
Stroitel'nyy Magazin Dizayn,Новгородская область,vk.com,vk.com,+7 816 595-41-48
Stroykom,Новгородская область,stroycom53.ru,"Мусы Джалиля-Духовская ул., 23, Великий Новгород, Новгородская обл., Русија, 173003",+7 816 277-50-80
Stroyoborudovaniye,Новгородская область,stroycom53.ru,"пр. Александра Корсунова, 14а, Великий Новгород, Новгородская обл., Русија, 173016",+7 816 250-00-90
"Строительный магазин ""Строй мастерок""",Новгородская область,10cka.ru,"Поперечная ул., 79, Старая Русса, Новгородская обл., Русија, 175202",+7 816 525-21-21
Строительный мир FIT,Новгородская область,10cka.ru,"Советский просп., 66, Валдай, Новгородская обл., Русија, 175419",+7 816 525-21-21
Stroyarsenal,Новгородская область,10cka.ru,"Молодогвардейская ул., 3, Чудово, Новгородская обл., Русија, 174210",+7 816 654-58-57
Smt,Санкт-Петербург,10cka.ru,"Большая Санкт-Петербургская ул., 51, Великий Новгород, Новгородская обл., Русија, 173000",+7 816 260-20-03
Baza 53,Новгородская область,10cka.ru,"Пионерская ул., 15, пос. Волховец, Новгородская обл., Русија, 173526",+7 960 201-24-41
Metizstroy,Новгородская область,metizstroy.ru,"ул. Нехинская, 48, Великий Новгород, Новгородская обл., Русија, 173000",+7 816 267-08-00
Magazin Kubometr,Новгородская область,metrkub.ru,"Устюженское ш., 10б, Пестово, Новгородская обл., Русија, 174510",+7 921 697-15-95
Stroitel'naya Baza Sm,Новгородская область,novgorod-sm.ru,"Veliky Novgorod, Novgorod Oblast, Русија, 173517",+7 816 290-99-00
Metallstroy,Новгородская область,metizy-stroy.ru,"ул. Ломоносова, 19/19, Великий Новгород, Новгородская обл., Русија, 173000",+7 816 228-02-42
Stroydostavka,Санкт-Петербург,stdostavka.ru,"Большая Санкт-Петербургская ул., 173, Великий Новгород, Новгородская обл., Русија, 173008",+7 816 264-47-44
Магазин «Строитель»,Новгородская область,stdostavka.ru,"Новгородская ул, 18, Бурга, Новгородская обл., Русија, 174280",+7 816 264-47-44
Belyy Kamen' Plyus,Новгородская область,stdostavka.ru,"Стратилатовская ул., 9а, Великий Новгород, Новгородская обл., Русија, 173003",+7 816 264-47-44
Stroybaza53,Новгородская область,stroybaza53.ru,"Дорожная ул., 17, Пестово, Новгородская обл., Русија, 174510",+7 816 264-47-44
Samodelkin,Новгородская область,samodelkin74.ru,"ул. Николаева, Окуловка, Новгородская обл., Русија, 174350",+7 816 264-47-44
"Stroitel'nyy Rynok ""Soyuz""",Новгородская область,vk.com,"Borovichi, Novgorod Oblast, Русија, 174406",+7 921 707-01-02
"Samodelkin, Magazin Stroitel'nykh Tovarov",Новгородская область,vk.com,"Центральная ул., 3, Окуловка, Новгородская обл., Русија, 174350",+7 816 572-42-18
Stroylandiya,Новгородская область,novgorod.stroylandiya.ru,"Колмовская наб., 13, Великий Новгород, Новгородская обл., Русија, 173003",+7 800 700-33-96
Vybor,Новгородская область,novgorod.stroylandiya.ru,"пл. Свободы, 7-Б, Валдай, Новгородская обл., Русија, 175400",+7 816 662-62-13
"Ooo ""Tpk Mia""",Новгородская область,novgorod.stroylandiya.ru,"ул. Береговая, Д.40, к.3, Великий Новгород, Новгородская обл., Русија, 173011",+7 996 568-48-08
Magazin Stroymaterialy,Новгородская область,novgorod.stroylandiya.ru,"Bol'shoi Gorodok, Novgorod Oblast, Русија, 174760",+7 996 568-48-08
Novosol,Новгородская область,novgorod.stroylandiya.ru,"ул. Подбельского, 16, Боровичи, Новгородская обл., Русија, 174411",+7 996 568-48-08
Ladnyy Dom,Новгородская область,novgorod.stroylandiya.ru,"ул. Германа, 17, Великий Новгород, Новгородская обл., Русија, 173002",+7 800 200-62-82
"Stroymarket, Magazin",Новгородская область,novgorod.stroylandiya.ru,"Коммунарная ул., 33, Боровичи, Новгородская обл., Русија, 174400",+7 816 644-19-70
"Stroytovary, Magazin",Новгородская область,novgorod.stroylandiya.ru,"Сырковское ш., 10, Великий Новгород, Русија, 173008",+7 816 261-72-08
"KERAMA MARAZZI, фирменный магазин керамической плитки",Псковская область,novgorod.stroylandiya.ru,"Псковская ул., 15, Великий Новгород, Новгородская обл., Русија, 173015",+7 816 260-22-68
Stroy Lider,Новгородская область,novgorod.stroylandiya.ru,"ул. Софьи Перовской, 72, Боровичи, Новгородская обл., Русија, 174400",+7 816 645-87-44
Logos,Новгородская область,logos.natm.ru,"Студенческая ул., 10, Великий Новгород, Новгородская обл., Русија, 173020",+7 816 267-92-13
"Kraski, Magazin",Псковская область,logos.natm.ru,"Псковская ул., 18, Великий Новгород, Новгородская обл., Русија, 173015",+7 816 267-92-13
Yevrodom,Новгородская область,logos.natm.ru,"Зелёная ул., 22, Валдай, Новгородская обл., Русија, 175400",+7 911 629-73-78
Stroymaterialy Shirokov,Новгородская область,shirokov53.ru,"ул 175202, ул. Дзержинского, 21, Старая Русса, Новгородская обл., Русија, 175202",+7 816 525-14-58
Okonnyy Supermarket Galichi,Новгородская область,shirokov53.ru,"ул. Рабочая, 31, Великий Новгород, Новгородская обл., Русија, 173008",+7 816 525-14-58
"Magazin ""Komfort""",Новгородская область,shirokov53.ru,"улица Дзержинского, Демянск, Новгородская обл., Русија, 175310",+7 816 514-29-79
"Стройматериалы, ИП Саутов С.А.",Новгородская область,shirokov53.ru,"наб. Штыкова, 16, Старая Русса, Новгородская обл., Русија, 175200",+7 816 523-78-15
"Magazin ""Umelets""",Новгородская область,shirokov53.ru,"Ленинградская ул., 4, Пролетарий, Новгородская обл., Русија, 173530",+7 911 600-19-01
"Construction wholesale warehouse ""Decor-Opt""",Новгородская область,10cka.ru,"ул. Латышских Гвардейцев, 46, Старая Русса, Новгородская обл., Русија, 175202",+7 816 525-25-63
Stroyzabor,Новгородская область,zaborvn.ru,"Прусская ул., 13A, Великий Новгород, Новгородская обл., Русија, 173010",+7 911 600-35-90
"Magazin ""Teplyy Dom""",Новгородская область,vk.com,"Комсомольская ул., 35А, Хвойная, Новгородская обл., Русија, 174581",+7 816 675-10-21
A-Al'tum,Новгородская область,a-altum.ru,"Сырковское ш., 3, Великий Новгород, Новгородская обл., Русија, 173008",+7 816 290-35-03
Luch,Новгородская область,a-altum.ru,"Chudovo, Novgorod Oblast, Русија, 174211",+7 960 208-84-24
"Skl, Magazin Santekhniki",Новгородская область,a-altum.ru,"ул. Нехинская, 12, 1 этаж, Великий Новгород, Новгородская обл., Русија, 173021",+7 950 680-80-51
Mir Svay,Новгородская область,mirsvai.ru,"Прусская ул., 25, Великий Новгород, Новгородская обл., Русија, 173000",+7 816 290-98-82
Fanera,Новгородская область,mirsvai.ru,"ул. Коровникова, 4, Великий Новгород, Новгородская обл., Русија, 173024",+7 816 290-98-82
Promintekh,Новгородская область,mirsvai.ru,"пр. Александра Корсунова, 41/2, Великий Новгород, Новгородская обл., Русија, 173023",+7 816 233-85-44
"Shop ""Warm House""",Новгородская область,mirsvai.ru,"Боровая ул., 13, Любытино, Новгородская обл., Русија, 174760",+7 816 686-14-40
House master,Новгородская область,mhnov.ru,"ул. Нехинская, 59, Великий Новгород, Новгородская обл., Русија, 173000",+7 816 290-08-07
Soyuz,Новгородская область,mhnov.ru,"49К-06, Окуловка, Новгородская обл., Русија, 174351",+7 816 290-08-07
Building technology,Санкт-Петербург,stroyteh53.ru,"Большая Санкт-Петербургская ул., 57, Великий Новгород, Новгородская обл., Русија, 173008",+7 816 260-77-29
Ip Tsvetkov A.s.,Новгородская область,stroyteh53.ru,"ул. Великая, 22, Великий Новгород, Новгородская обл., Русија, 173003",+7 816 233-21-63
BorFence,Новгородская область,borfence.ru,"ул. Льва Толстого, дом 49, Боровичи, Новгородская обл., Русија, 174406",+7 499 130-05-51
Borovit,Новгородская область,borfence.ru,"Юго-западная ул., 1, Боровичи, Новгородская обл., Русија, 174400",+7 816 642-10-05
Astra,Новгородская область,ванныспб.рф,"Вокзальная ул., 6, Шимск, Новгородская обл., Русија, 174150",+7 911 621-57-96
Shtil' Novgorodlesprom,Новгородская область,integralfanera.ru,"ул. Московская, 51, Великий Новгород, Новгородская обл., Русија, 173020",+7 911 600-69-07
КАКАДУ Центр колеровки Tikkurila,Новгородская область,integralfanera.ru,"ул. Гоголя, 142, Боровичи, Новгородская обл., Русија, 174403",+7 911 615-62-24
Shok,Новгородская область,integralfanera.ru,"ул. Нехинская, 46, Великий Новгород, Новгородская обл., Русија, 173000",+7 816 267-29-25
"Shop ""Megastroy""",Новгородская область,integralfanera.ru,"ул. Советская, 131, Боровичи, Новгородская обл., Русија, 174406",+7 816 644-78-27
Armada-N store garden and household goods,Новгородская область,integralfanera.ru,"ул. Державина, 8 корпус 1, Великий Новгород, Новгородская обл., Русија, 173020",+7 816 263-80-73
Kvadratura,Новгородская область,квадратура.рус,"пр. Александра Корсунова, 28а, Великий Новгород, Новгородская обл., Русија, 173023",+7 816 250-03-11
Sadko-Vn,Новгородская область,sadko53.ru,"173021, ул. Большая Московская, 58/9, Великий Новгород, Новгородская обл., Русија, 173004",+7 921 730-98-19
Favorit,Новгородская область,sadko53.ru,"ул. Московская, 7, Крестцы, Новгородская обл., Русија, 175460",+7 816 595-41-66
Gidroizol.ru,Санкт-Петербург,gidroizol.ru,"Большая Санкт-Петербургская ул., 107, Великий Новгород, Новгородская обл., Русија, 173008",+7 816 228-04-24
"Khozyayushki, Khozyaystvennyy Magazin",Новгородская область,gidroizol.ru,"ул. Карла Маркса, 12, Малая Вишера, Новгородская обл., Русија, 174260",+7 816 603-64-45
Mastak,Новгородская область,comboinfo.com,"Центральная ул., 2А, Григорово, Новгородская обл., Русија, 173018",+7 816 255-64-00
"100 Melochey, Khozyaystvennyy Magazin",Новгородская область,comboinfo.com,"ул. Ленина, 17-А, Демянск, Новгородская обл., Русија, 175310",+7 816 514-29-70
Fsk,Новгородская область,fsk-metallprofil.ru,"ул. Великая, 22, Великий Новгород, Новгородская обл., Русија, 173003",+7 911 041-76-83
White City,Псковская область,studiobg.ru,"Псковская ул., 25, Великий Новгород, Новгородская обл., Русија, 173009",+7 816 273-00-11
Arkhpromkomplekt,Ненецкий автономный округ,apk.ru,"ул. 60 Лет Ссср, 6а, Нарьян-Мар, Ненецкий автономный округ, Русија, 166004",+7 818 534-63-36
Magnit Mebel',Ненецкий автономный округ,kontur-yamal.ru,"Октябрьская ул., 36, Нарьян-Мар, Ненецкий автономный округ, Русија, 166000",+7 922 970-24-57
"Prodovol'stvennyy Magazin ""Zarya""",Ненецкий автономный округ,vk.com,"Октябрьская ул., 26, Нарьян-Мар, Ненецкий автономный округ, Русија, 166000",+7 937 097-99-23
"Magazin ""Khleb""",Ненецкий автономный округ,vk.com,"ул. Ленина, 44, Нарьян-Мар, Ненецкий автономный округ, Русија, 166004",+7 937 097-99-23
"Trading House ""Recom""",Мурманская область,rekoma.ru,"просп. Кольский, 51/2, Мурманск, Мурманская обл., Русија, 183052",+7 815 225-10-97
Tsentr Stroymaterialov Murmana,Мурманская область,csm51.com,"Транспортная ул., 1А, Мурманск, Мурманская обл., Русија, 183034",+7 815 222-82-22
Tvoya Kvartira Magazin Stroymaterialov,Мурманская область,csm51.com,"Кольский просп. 70, Мурманск, Мурманская обл., 183052, Мурманск, Мурманская обл., Русија, 183008",+7 815 225-51-85
"Stroylend, Magazin Stroitel'nykh Tovarov",Мурманская область,csm51.com,"ул. Домостроительная, 16/1, Мурманск, Мурманская обл., Русија, 183034",+7 815 225-51-85
Kronverk,Мурманская область,csm51.com,"Промышленная ул., 6, Мурманск, Мурманская обл., Русија, 183034",+7 815 243-57-30
СтройМикс,Мурманская область,st-mix.ru,"Рогозерская ул., 38, Мурманск, Мурманская обл., Русија, 183039",+7 815 221-50-99
your home,Мурманская область,st-mix.ru,"ул. Капитана Буркова, 35, Мурманск, Мурманская обл., Русија, 183025",+7 815 244-17-47
Rekoma,Мурманская область,rekoma.ru,"ул. Домостроительная, 19, Мурманск, Мурманская обл., Русија, 183034",+7 815 243-43-40
Galereya Stroitel'nykh Resheniy,Мурманская область,rekoma.ru,"просп. Кольский, 58, Мурманск, Мурманская обл., Русија, 183045",+7 815 270-47-02
Kaskada,Мурманская область,rekoma.ru,"ТЦ ""А-Квадрат, пр. Ленина, 27А, Мурманск, Мурманская обл., Русија, 183038",+7 902 281-55-56
Bayern Plus Repair,Мурманская область,bavariaplus.ru,"ул. Домостроительная, 14, Мурманск, Мурманская обл., Русија, 183034",+7 815 243-29-16
Azbuka Remonta,Мурманская область,bavariaplus.ru,"ул. Ломоносова, 3а, Полярные Зори, Мурманская обл., Русија, 184230",+7 800 350-00-43
Stroymiks,Мурманская область,st-mix.ru,"ул. Магомеда, ул. Гаджиева, 10, Мурманск, Мурманская обл., Русија, 183034",+7 815 222-66-36
building a house,Мурманская область,st-mix.ru,"ул. Домостроительная, 14, Мурманск, Мурманская обл., Русија, 183031",+7 960 028-03-00
Stroybazar,Мурманская область,st-mix.ru,"ул. Сивко, 6, Полярные Зори, Мурманская обл., Русија, 184230",+7 960 028-03-00
Stroy-ka,Мурманская область,st-mix.ru,"ул. Старостина, 55, Мурманск, Мурманская обл., Русија, 183036",+7 921 155-95-95 ext. 785959
Tikkurila 51,Мурманская область,vk.com,"пр. Ленина, 27А, Мурманск, Мурманская обл., Русија, 183010",+7 911 331-75-85
"Shop ""For You""",Мурманская область,vk.com,"Кировская ал., 2, Кандалакша, Мурманская обл., Русија, 184046",+7 921 038-37-34
Tera,Мурманская область,tera-dom.ru,"ул. Домостроительная, 16, 304, Мурманск, Мурманская обл., Русија, 183035",+7 815 241-25-40
Stroybaza Yuzhnaya,Мурманская область,tera-dom.ru,+7 921 708-80-11,+7 921 708-80-11
Komfortservis,Мурманская область,tera-dom.ru,"Lovozero, Murmansk Oblast, Русија, 184592",+7 921 708-80-11
Stroy Plyus,Мурманская область,vk.com,"Заводская ул., д, Кандалакша, Мурманская обл., Русија, 184042",+7 921 518-01-71
"1000 Melochey, Khozyaystvennyy Magazin",Мурманская область,vk.com,"Советский просп., 24, Кола, Мурманская обл., Русија, 184381",+7 815 533-56-77
Ks Dekor,Мурманская область,vk.com,"пр. Ленина, 88, Мурманск, Мурманская обл., Русија, 183038",+7 815 245-93-33
"Torgovyy Tsentr ""Re-Mont""",Мурманская область,vk.com,"Пригородная ул., 6а, Апатиты, Мурманская обл., Русија, 184209",+7 815 245-93-33
House Shopping Center,Мурманская область,vk.com,"д., Железнодорожная ул., 3, Мончегорск, Мурманская обл., Русија, 184511",+7 815 367-00-89
"Стройматериалы ""Best""",Мурманская область,vk.com,"Комсомольская ул., 1а, Мончегорск, Мурманская обл., Русија, 184511",+7 815 367-00-89
"ООО ""Ново-Строй""",Мурманская область,vk.com,"просп. Ленина, 33, Мончегорск, Мурманская обл., Русија, 184511",+7 815 365-82-76
Stroitel'stvo Murmansk,Мурманская область,vk.com,"просп. Кольский, 91, Мурманск, Мурманская обл., Русија, 183000",+7 921 285-96-14
ООО «Центр строительных материалов»,Мурманская область,цсм-хибины.рф,"Апатитовое ш., 12, к.1, Кировск, Мурманская обл., Русија, 184250",+7 921 030-45-93
repair Alphabet,Мурманская область,цсм-хибины.рф,"Комсомольская ул., 5, Мончегорск, Мурманская обл., Русија, 184511",+7 815 367-08-08
"Metizy, Magazin",Мурманская область,цсм-хибины.рф,"ул. Щербакова, дом 10 в, Мурманск, Мурманская обл., Русија, 183052",+7 815 367-08-08
Planeta Remonta,Мурманская область,цсм-хибины.рф,"Советская ул., 21а, Сафонова ул.,19, Сафонова ул.,21, Гвардейская ул.,38, Колышкина ул.,7, Североморск, Мурманская обл., Русија, 184606",+7 815 374-85-10
Brigantina,Мурманская область,цсм-хибины.рф,"Кирова пр., 7, Мончегорск, Мурманская обл., Русија, 184511",+7 815 367-02-77
Seyd,Мурманская область,цсм-хибины.рф,"Новопроложенная ул., 14, Мончегорск, Мурманская обл., Русија, 184511",+7 815 367-02-77
"Shop ""Master""",Мурманская область,masterkovdor.my1.ru,"ул. Чехова, 6А, Ковдор, Мурманская обл., Русија, 184144",+7 815 355-05-60
Mark,Мурманская область,magazinmark.ru,"ул. Сафонова, 19, Североморск, Мурманская обл., Русија, 184604",+7 815 374-72-73
Khottey,Мурманская область,hottey51.ru,"Молодежный пр., 12а, Мурманск, Мурманская обл., Русија, 183008",+7 815 270-78-87
"Megastroy, Korpus 2",Мурманская область,hottey51.ru,"ул. Гладышева, 23А, Апатиты, Мурманская обл., Русија, 184209",+7 815 270-78-87
Master-Klass,Мурманская область,hottey51.ru,"ул. Лобова, 15, Мурманск, Мурманская обл., Русија, 183034",+7 815 245-15-54
Ooo Misteriya,Мурманская область,hottey51.ru,"ул. Домостроительная, 19/1, Мурманск, Мурманская обл., Русија, 183034",+7 815 247-86-91
"Master, Khozyaystvennyy Magazin",Мурманская область,hottey51.ru,"ул. Ленина, 19, Кировск, Мурманская обл., Русија, 184250",+7 815 319-18-66
Tsentr Krepezha,Мурманская область,hottey51.ru,"ул. Капитана Буркова, 25, Мурманск, Мурманская обл., Русија, 183025",+7 815 244-12-09
Dom Magazin Ip Rogova Ye.g.,Мурманская область,hottey51.ru,"Набережная ул., 133, Кандалакша, Мурманская обл., Русија, 184056",+7 815 339-62-49
clever mixture,Мурманская область,weber-vetonit.ru,"супермаркет ""Евророс"", ул. Ленина, 12А, Кировск, Мурманская обл., Русија, 184250",+7 800 333-20-11
Optimal Solutions,Мурманская область,optimal-r.ru,"Колхозная ул., 2, Кандалакша, Мурманская обл., Русија, 184040",+7 921 512-23-79
"Mega Stroy, Korpus 1",Мурманская область,optimal-r.ru,"Apatity, Murmansk Oblast, Русија, 184209",+7 815 557-19-06
Kompleksnyye Stroitel'nyye Resheniya,Мурманская область,optimal-r.ru,"ул. Павлова, дом 13, Мурманск, Мурманская обл., Русија, 183032",+7 815 270-57-04
"""Khozyain"" Khozmag",Мурманская область,optimal-r.ru,"ул. Гагарина, 5, Полярный, Мурманская обл., Русија, 184650",+7 911 303-90-21
Household products,Мурманская область,optimal-r.ru,"ул. Щербакова, 14, Мурманск, Мурманская обл., Русија, 183052",+7 911 303-90-21
Balezina T.i. Ip,Мурманская область,optimal-r.ru,"ул. Капитана Буркова, 35, Мурманск, Мурманская обл., Русија, 183025",+7 815 244-48-44
Proton,Мурманская область,optimal-r.ru,"Скальная ул., 28, Мурманск, Мурманская обл., Русија, 183036",+7 815 226-43-02
"Khoztovary, Magazin",Мурманская область,optimal-r.ru,"ул. Стеблина, 33, Снежногорск, Мурманская обл., Русија, 184680",+7 815 226-43-02
"Megastroy, Korpus 3",Мурманская область,optimal-r.ru,"ул. Жемчужная, 19А, Апатиты, Мурманская обл., Русија, 184209",+7 815 226-43-02
Stroymaks,Мурманская область,vk.com,"ул. Подгорная, 62, Мурманск, Мурманская обл., Русија, 183001",+7 815 278-61-62
Art-Stil',Мурманская область,vk.com,"Фестивальная ул., 9, Апатиты, Мурманская обл., Русија, 184209",+7 964 309-91-89
Dom,Мурманская область,vk.com,"ТЦ ""Южный"", ул. Щербакова, 9, Мурманск, Мурманская обл., Русија, 183014",+7 421 253-33-33
Эталон+,Мурманская область,vk.com,"ул. Пронина, 12а, Кандалакша, Мурманская обл., Русија, 184042",+7 815 339-40-00
Stroystudiya,Мурманская область,vk.com,"просп. Ленина, 7-в, Кировск, Мурманская обл., Русија, 184250",+7 815 315-42-40
Elektroinstrument,Мурманская область,vk.com,"ул. Дзержинского, 35, Апатиты, Мурманская обл., Русија, 184209",+7 815 315-42-40
"Magazin ""Pervyy Master""",Мурманская область,vk.com,"ул. Энергетиков, 23, Мурмаши, Мурманская обл., Русија, 184355",+7 953 307-50-99
Master-Olenegorsk,Мурманская область,vk.com,"Парковая ул., 13, Оленегорск, Мурманская обл., Русија, 184530",+7 996 934-65-50
Stroy Studiya,Мурманская область,stroistudiya.ru,"пр. Металлургов, 42к3, Мончегорск, Мурманская обл., Русија, 184511",+7 921 040-54-01
plumbing Supplies,Мурманская область,stroistudiya.ru,"ТЦ ""Дом"", Железнодорожная ул., 3, Мончегорск, Мурманская обл., Русија, 184500",+7 815 366-00-41
Akvaarktika,Мурманская область,stroistudiya.ru,"ул. Халатина, 11А, Мурманск, Мурманская обл., Русија, 183031",+7 815 241-30-02
"Magazin ""Praktik""",Мурманская область,stroistudiya.ru,"ул. Ленинградская, 20А, Кировск, Мурманская обл., Русија, 184250",+7 911 347-62-90
"Mega, Promtovarnyy Magazin",Мурманская область,stroistudiya.ru,"пр. Металлургов, 39, Мончегорск, Мурманская обл., Русија, 184511",+7 815 367-49-38
Dekor,Мурманская область,stroistudiya.ru,"ул. Кондрикова, 3, Кировск, Мурманская обл., Русија, 184250",+7 815 319-63-59
Domovonok,Мурманская область,stroistudiya.ru,+7 921 661-43-36,+7 921 661-43-36
"Magazin ""Khozyain""",Мурманская область,vk.com,"Советская ул., 1, Полярный, Мурманская обл., Русија, 184664",+7 909 561-72-35
ИНСТРУМЕНТЫ51.ru,Мурманская область,tools-shop51.ru,"Магазин «Практика», ул. Свердлова, 9Б, Мурманск, Мурманская обл., Русија, 183031",+7 921 708-70-80
Northern Crown,Мурманская область,tools-shop51.ru,"ул. Бредова, 13, Апатиты, Мурманская обл., Русија, 184209",+7 815 556-15-10
Torgovyy Dom,Мурманская область,tools-shop51.ru,"ул. Домостроительная, 16, Мурманск, Мурманская обл., Русија, 183034",+7 815 556-15-10
Stroyctudiya,Мурманская область,stroistudiya.ru,"пр. Ленина, 27 А, Мурманск, Мурманская обл., Русија, 183038",+7 815 269-07-82
Gnom,Мурманская область,stroistudiya.ru,"Парковая ул., 7, Оленегорск, Мурманская обл., Русија, 184530",+7 815 525-78-50
Everest,Мурманская область,stroistudiya.ru,"Первомайская ул., 24, Кандалакша, Мурманская обл., Русија, 184040",+7 815 525-78-50
"Pilomaterialy, Ip Chuprov",Мурманская область,stroistudiya.ru,"ул. Каменный остров, 5, Кола, Мурманская обл., Русија, 184381",+7 815 268-51-34
Stroydomsam,Мурманская область,sds-51.ru,"ул. Домостроительная, 8, Мурманск, Мурманская обл., Русија, 183034",+7 815 268-51-34
Beregun,Мурманская область,sds-51.ru,"Комсомольская ул., 52/9, Мончегорск, Мурманская обл., Русија, 184511",+7 960 020-28-74
"Del'fin, Santekhnika V Murmanske",Мурманская область,vk.com,"ул. Свердлова, 19-б, Мурманск, Мурманская обл., Русија, 183034",+7 902 281-33-75
Master Plyus,Мурманская область,vk.com,"ул. 50 Лет октября, 5, Кандалакша, Мурманская обл., Русија, 184040",+7 921 043-98-06
"ООО ""Голд Пак Север""",Мурманская область,goldpak-sever.ru,"Бизнес-центр, Кольский просп, 110А, Офис 57, Мурманск, Мурманская обл., Русија, 183052",+7 815 224-43-54
Vintik,Мурманская область,goldpak-sever.ru,"ул. Челюскинцев, 18/20, Мурманск, Мурманская обл., Русија, 183038",+7 965 801-08-36
"Mir Stroiteley, Stroitel'nyy Magazin",Республика Коми,woodby.ru,"ул, Ухтинское ш., 45/1, Сыктывкар, Респ. Коми, Русија, 167019",+7 912 186-19-99
"Dvina-Stroymaterialy, Magazin Stroitel'nykh Materialov",Республика Коми,dvinasm.ru,"Сысольское ш., 3, Сыктывкар, Респ. Коми, Русија, 167004",+7 821 233-44-66
Baza Stroitel'nykh Materialov,Республика Коми,dvinasm.ru,"ул. Оплеснина, 35, Сыктывкар, Респ. Коми, Русија, 167016",+7 821 233-44-66
"Stroymarket ""Al'fa""",Республика Коми,dvinasm.ru,"ул. Островского, 52, Печора, Респ. Коми, Русија, 169601",+7 821 233-44-66
Yunist-Stroy,Республика Коми,unist-stroy.ru,"Сысольское ш., 7, Сыктывкар, Респ. Коми, Русија, 167004",+7 821 240-08-30
Строймаркет ECO-DVOR.RU,Республика Коми,eco-dvor.ru,"Гаражная, 7/2, Сыктывкар, Респ. Коми, Русија, 167000",+7 821 228-83-66
Dvina-Stroymaterialy Magazin,Республика Коми,dvinasm.ru,"Сысольское ш. 63, Сыктывкар, Коми респ., 167000, Сыктывкар, Респ. Коми, Русија, 167002",+7 821 231-60-31
"Stroymarket, Ooo Lako",Республика Коми,dvinasm.ru,"Дзержинского ул. 28, Усть-Вымский р-н, Микунь, Коми респ., 169061, Микунь, Респ. Коми, Русија, 169060",+7 821 343-16-31
Topdom Magazin Stroitel'nykh I Otdelochnykh Materialov,Республика Коми,dvinasm.ru,"ул. Морозова, 69, Сыктывкар, Респ. Коми, Русија, 167023",+7 821 272-66-72
Torgovyy Dom Roy Plyus,Республика Коми,dvinasm.ru,"ул. Гаражная, 9, корп. 3, Сыктывкар, Респ. Коми, Русија, 167000",+7 821 229-19-82
Mega,Республика Коми,mega29.ru,"Октябрьский пр., 131 корпус 4, Сыктывкар, Респ. Коми, Русија, 167981",+7 800 222-12-40
Yeliseyevskiy,Республика Коми,mega29.ru,"Первомайская ул., 24, Емва, Респ. Коми, Русија, 169200",+7 800 222-12-40
Stroytim,Республика Коми,mega29.ru,"ул. Дырнос, 3a, Сыктывкар, Респ. Коми, Русија, 167000",+7 821 231-52-27
Stroitel' Baza Stroymaterialov,Республика Коми,mega29.ru,"Северная ул., 73, Сыктывкар, Респ. Коми, Русија, 167009",+7 821 222-82-23
Mir Remonta,Республика Коми,mega29.ru,"ул. Кирова, 21, Инта, Респ. Коми, Русија, 169840",+7 912 555-64-27
Etalon,Республика Коми,mega29.ru,"пр-д Строителей, 5, Ухта, Респ. Коми, Русија, 169300",+7 904 273-83-47
Inkom Magazin,Республика Коми,mega29.ru,"Октябрьская ул. 38, Ухта, Коми респ., 169300, Ухта, Респ. Коми, Русија, 169312",+7 912 186-31-32
Magazin Metiz,Республика Коми,mega29.ru,"ул. Гагарина, 5, Выльгорт, Респ. Коми, Русија, 168220",+7 821 257-63-57
Krepezh Market,Республика Коми,boltkomi.ru,"Ухтинское ш., 6, Сыктывкар, Респ. Коми, Русија, 167018",+7 821 229-77-22
Td Stroybat,Республика Коми,stroybatinfo.ru,"Сысольское ш., 29/14, Сыктывкар, Респ. Коми, Русија, 167023",+7 821 240-04-56
"Magazin ""Khozstroy""",Республика Коми,stroybatinfo.ru,"ул. Заводская, д.1, Щельяюр, Респ. Коми, Русија, 169470",+7 821 409-11-09
Magazin Stroitel'nykh Tovarov Irina,Республика Коми,stroybatinfo.ru,"ул. Строителей, 13А, Усинск, Респ. Коми, Русија, 169711",+7 821 409-11-09
Mkrep,Республика Коми,mkrep.ru,"Коммунистическая ул., 10, Емва, Респ. Коми, Русија, 169200",+7 904 863-53-93
"Vetlosyanskiye Stroymaterialy, Oao",Республика Коми,mkrep.ru,"кольцевая, г.Ухта, Респ. Коми, Русија, 169300",+7 821 675-81-71
"Stroykholding, Magazin Otdelochnykh Materialov",Республика Коми,vk.com,"ул. Карла Маркса, ул., 197, Сыктывкар, Респ. Коми, Русија, 167000",+7 821 224-20-18
"Komiteks Treyding, Magazin Stroitel'nykh Tovarov",Республика Коми,vk.com,"Морозова ул., 156, Сыктывкар, Респ. Коми, Русија, 167000",+7 821 227-05-72
"Magazin ""Kristall""",Республика Коми,vk.com,"ул. Дзержинского, 28, 28, Микунь, Респ. Коми, Русија, 169060",+7 821 343-13-66
"Ooo ""Skk""",Республика Коми,skkomi.ru,"ул. Печорская, 50, Сыктывкар, Респ. Коми, Русија, 167000",+7 821 225-66-36
Benilyuks,Республика Коми,beniluks.ru,"Пионергорский пр-д, 3, Ухта, Респ. Коми, Русија, 169319",+7 821 674-99-63
"Snabzhenets, Magazin",Республика Коми,beniluks.ru,"ул. Машиностроителей, 4/3, Ухта, Респ. Коми, Русија, 169300",+7 821 674-99-63
Magazin Upravdom,Республика Коми,beniluks.ru,"б-р Пищевиков, 24, Строительный, Респ. Коми, Русија, 169908",+7 821 674-99-63
Tyap-Lyap Magazin,Республика Коми,beniluks.ru,"Димитрова ул. 11/А, Воркута, Коми респ., 169912, Воркута, Респ. Коми, Русија, 169912",+7 821 516-58-65
Premix,Республика Коми,beniluks.ru,"Тентюковская ул., 427/2, Сыктывкар, Респ. Коми, Русија, 167000",+7 912 863-99-88
Stroykomplektkomi,Республика Коми,skkomi.ru,"ул. Печорская, 50, Сыктывкар, Респ. Коми, Русија, 167000",+7 912 863-99-88
Smzreal,Республика Коми,smzreal.ru,"Сысольское ш., 7/3, Сыктывкар, Респ. Коми, Русија, 167000",+7 821 224-24-61
"Palitra, Magazin Otdelochnykh Materialov",Республика Коми,smzreal.ru,"ул. Огородная, 6, Сыктывкар, Респ. Коми, Русија, 167000",+7 821 257-79-06
Stroymaterialy-K,Республика Коми,smzreal.ru,"Коммунистическая ул. 7, ТЦ Звездный, Сыктывкар, Коми респ., 167000, Сыктывкар, Респ. Коми, Русија, 167000",+7 821 229-19-01
Stroy-Ekonom,Республика Коми,vk.com,"ул. Булгаковой, 22, Печора, Респ. Коми, Русија, 169600",+7 821 427-17-32
"Stroyberi, Magazin",Республика Коми,s-be.ru,"ул. Колхозная, 44/2, Сыктывкар, Респ. Коми, Русија, 167000",+7 821 223-91-21
Al'fatorg,Республика Коми,s-be.ru,"ул. Колхозная, 52/2, Сыктывкар, Респ. Коми, Русија, 167004",+7 821 221-10-50
Stroyberi,Республика Коми,s-be.ru,"Ухтинское ш., 4, Сыктывкар, Респ. Коми, Русија, 167026",+7 821 221-10-50
Fanera-Severa.rf,Республика Коми,s-be.ru,"ул. Молодёжная, 2/2, Жешарт, Респ. Коми, Русија, 169045",+7 909 120-46-44
Teplovik-Stroymaterialy,Республика Коми,s-be.ru,"1В, Уральская ул., Ухта, Респ. Коми, Русија, 169302",+7 821 675-66-00
Магазин СтройМатериалов,Республика Коми,s-be.ru,"Октябрьская ул., 18, Ярега, Респ. Коми, Русија, 169347",+7 821 675-66-00
Gals,Республика Коми,isover.ru,"ул. Заводская, 3, Ухта, Респ. Коми, Русија, 169300",+7 821 674-22-94
Kvartirnyy Vopros,Республика Коми,isover.ru,"ул. Строителей, 4, Усинск, Респ. Коми, Русија, 169711",+7 821 444-25-93
"""Zhalyuzibra""",Республика Коми,zhaluzibra.ru,"пр. Ленина, 6, Ухта, Респ. Коми, Русија, 169312",+7 821 677-73-45
Ideya Parketa,Республика Коми,zhaluzibra.ru,"пр. Космонавтов, 7, Ухта, Респ. Коми, Русија, 169300",+7 912 501-09-09
"Ooo ""Stroytorg"" Usinsk",Республика Коми,zhaluzibra.ru,"Промышленная ул., 26/4, Усинск, Респ. Коми, Русија, 169710",+7 821 444-53-56
Khozmir,Республика Коми,zhaluzibra.ru,"ул. Свердлова, 10к1, Жешарт, Респ. Коми, 169045, ул. Свердлова, 10 корпус 1, Жешарт, Респ. Коми, Русија, 169045",+7 821 444-53-56
"Khoztorg, Khozyaystvennyy Magazin",Республика Коми,zhaluzibra.ru,"ул. Мира, 48, лит. А, Сыктывкар, Респ. Коми, Русија, 167000",+7 821 262-73-24
Magazin Otdelochnykh Materialov,Республика Коми,vk.com,"Огородная ул., 2, склад № 8, Сыктывкар, Респ. Коми, Русија, 167031",+7 821 220-23-29
"Baza ""Severnyye Stroymaterialy""",Республика Коми,vk.com,"Станционная ул., 6, Ухта, Респ. Коми, Русија, 169304",+7 821 677-83-88
Novinka,Республика Коми,vk.com,"ул. Интернациональная, 8, 8, Кожва, Респ. Коми, Русија, 169663",+7 821 429-50-15
"Promsnabkomi, Ooo",Республика Коми,vk.com,"ул. Коммунистическая, 7, Сыктывкар, Респ. Коми, Русија, 167000",+7 821 226-08-40
Vodaley,Республика Коми,vk.com,"Troitsko-Pechorsk, Komi Republic, Русија, 169420",+7 821 226-08-40
Kirpich,Республика Коми,vk.com,"Пермская ул., 30/1, Сыктывкар, Респ. Коми, Русија, 167009",+7 821 226-08-40
Doska Pola,Республика Коми,vk.com,"Октябрьский пр., 131/4, Сыктывкар, Респ. Коми, Русија, 167000",+7 821 226-08-40
Napol'nyye Pokrytiya,Республика Коми,vk.com,"пр. Космонавтов, 7, Ухта, Респ. Коми, Русија, 169300",+7 821 226-08-40
"Magazin Santekhniki ""Magnit""",Республика Коми,vk.com,"ул. Советская, 35, Печора, Респ. Коми, Русија, 169601",+7 821 226-08-40
"Magazin Master Avtoaksessuarov I Masel, Instrument",Республика Коми,vk.com,"1-я Промышленная ул., Сыктывкар, Респ. Коми, Русија, 167022",+7 900 978-09-99
QUICK STEP,Республика Коми,syktyvkar.quickstep.ru,"ул. Пушкина, 63, Сыктывкар, Респ. Коми, Русија, 167000",+7 821 244-60-45
Vso Dlya Krovli I Fasada,Республика Коми,syktyvkar.krovli-fasadi.ru,"Северная ул., 81, Сыктывкар, Респ. Коми, Русија, 167009",+7 821 246-90-46
"Santekhnika,",Республика Коми,syktyvkar.krovli-fasadi.ru,"Интернациональная ул., 57, Ухта, Респ. Коми, Русија, 169300",+7 821 246-90-46
Mirta,Республика Коми,syktyvkar.krovli-fasadi.ru,"ул. Дзержинского, 98, Емва, Респ. Коми, Русија, 169200",+7 821 246-90-46
Stroy-Tsentr,Республика Коми,syktyvkar.krovli-fasadi.ru,"Пермская ул., 1/14, Сыктывкар, Респ. Коми, Русија, 167009",+7 821 246-90-46
Tbm,Республика Коми,tbm.ru,"Октябрьский пр., 131/6, Сыктывкар, Респ. Коми, Русија, 167000",+7 821 223-94-23
Ekopol,Республика Коми,tbm.ru,"ул. Морозова, 133, Сыктывкар, Респ. Коми, Русија, 167002",+7 821 229-66-68
Irina Magazin,Республика Коми,tbm.ru,"Строителей ул. 13/А, Усинск, Коми респ., 169711, Усинск, Респ. Коми, Русија, 169711",+7 821 444-36-60
"Khozyain, Magazin Stroitel'no-Otdelochnykh Materialov",Республика Коми,tbm.ru,"ул. Орджоникидзе, 16, Сыктывкар, Русија, 167000",+7 821 255-93-07
Avangard,Республика Коми,tbm.ru,"Комсомольская ул., 2/2, Сосногорск, Респ. Коми, Русија, 169500",+7 821 255-93-07
"Stroitel'nyy Mir,",Республика Коми,tbm.ru,"ул. Колхозная, 56/3, Сыктывкар, Респ. Коми, Русија, 167002",+7 821 256-80-92
Salon Keramicheskoy Plitki,Республика Коми,tbm.ru,"ул. Пионерская, 12, Ухта, Респ. Коми, Русија, 169300",+7 912 955-99-03
Oktyabr',Республика Коми,tbm.ru,"9, Печорский пр-т., Печора, Респ. Коми, Русија, 169600",+7 912 955-99-03
Khatka Ooo,Республика Коми,хатка11.рф,"Сыктывкар, Коми респ., 167009, Школьная ул., 29, Сыктывкар, Респ. Коми, Русија, 167009",+7 821 257-87-01
"Pechki-Lavochki, Magazin",Республика Коми,p-lavochki.com,"Ухтинское ш., 12, Сыктывкар, Респ. Коми, Русија, 169100",+7 908 710-44-54
"SHOPSAN.RU, магазин сантехники",Республика Коми,shopsan.ru,"ул. Куратова, 79, Сыктывкар, Респ. Коми, Русија, 167000",+7 965 860-68-08
Stroydvor Polatovo,Республика Коми,polatovo.com,"ул. Маркова, 12, Сыктывкар, Респ. Коми, Русија, 167000",+7 821 256-75-15
"Torgovyy Dom ""Krepezh""",Республика Коми,polatovo.com,"ул. Булгаковой, 2Д, Печора, Респ. Коми, Русија, 169600",+7 821 256-75-15
Parus,Республика Коми,parus-komi.ru,"Комсомольская пл., 5, Ухта, Респ. Коми, Русија, 169313",+7 821 672-32-58
Arista,Республика Коми,arista-rk.ru,"Новая ул., 1/6, Сыктывкар, Респ. Коми, Русија, 167009",+7 821 229-61-11
Khozservis,Республика Коми,arista-rk.ru,"Inta, Komi Republic, Русија, 169840",+7 821 229-61-11
Timan Magazin,Республика Коми,arista-rk.ru,"Комсомольская ул. 20/А, Усинск, Коми респ., 169711, Усинск, Респ. Коми, Русија, 169711",+7 821 444-12-02
GrossHaus,Республика Коми,250505.ru,"Коммунистическая ул., 31, Емва, Респ. Коми, Русија, 169200",+7 821 229-11-63
Granit Tsentr,Республика Коми,250505.ru,"Vorkuta, Komi Republic, Русија, 169915",+7 821 516-80-69
"""Enkor""",Республика Коми,enkor.ru,"ул. Сенюкова, 2а, Ухта, Респ. Коми, Русија, 169300",+7 821 674-42-70
Stroy Dvor Torgovaya Kompaniya,Республика Коми,stroydvor11.ru,"Лесопарковая ул., 12/4, Сыктывкар, Респ. Коми, Русија, 167023",+7 821 232-15-85
"Metiz, Set' Magazinov Krepezhnykh Izdeliy",Республика Коми,метиз-сыктывкар.рф,"ул. Заводская, 21/1, Сыктывкар, Респ. Коми, Русија, 167000",+7 904 271-52-26
"Magazin ""Tekhkomplekt""",Республика Коми,метиз-сыктывкар.рф,"Печорский пр-т., 56, Печора, Респ. Коми, Русија, 169600",+7 996 590-99-91
Tarkett,Республика Коми,метиз-сыктывкар.рф,"ул. 40 Лет Коми, 3/16, Ухта, Респ. Коми, Русија, 169300",+7 996 590-99-91
"Stroyberi, Magazin Stroitel'nykh Materialov",Республика Коми,метиз-сыктывкар.рф,"Сысольское ш., 3/2, Сыктывкар, Русија, 167000",+7 821 221-10-29
Торговый Дом Строитель,Калининградская область,tdstroitel.ru,"ул. Юрия Гагарина, 239, Калининград, Калининградская обл., Русија, 236038",+7 401 277-72-39
"Stroitel'nyye I Otdelochnyye Materialy ""Som"" Magazin",Калининградская область,tdstroitel.ru,"ул. Гранитная, 8, Гурьевск, Калининградская обл., Русија, 238300",+7 401 513-15-28
Td Stroitel',Калининградская область,tdstroitel.ru,"ул. Суворова, 54А/2, Калининград, Калининградская обл., Русија, 236005",+7 401 513-15-28
"Rapchinskiy V.v., Magazin Stroitel'nykh Tovarov",Калининградская область,tdstroitel.ru,"ул. Дзержинского, 117, Калининград, Калининградская обл., Русија, 236004",+7 401 513-15-28
"Torgovyy Dom ""Printsip"", Set' Magazinov Stroitel'nykh Materialov",Калининградская область,princip39.ru,"Проспект Победы 139А ул.Камская 2Б, склад №1, Советский пр., 186, корп.1, Калининград, Калининградская обл., Русија, 236010",+7 401 296-00-90
Perminovstroy Stroitel'nyye Materialy,Калининградская область,перминов-строй.рф,"ул. Горького, 283 А, Калининград, Калининградская обл., Русија, 236001",+7 963 290-47-55
СМАРТ магазин строительных материалов,Калининградская область,smartkd.ru,"Советский пр., 159, Калининград, Калининградская обл., Русија, 236023",+7 401 231-18-55
"БСМ, База стройматериалов",Калининградская область,baza-bsm.ru,"ул. Александра Невского, 205, Калининград, Калининградская обл., Русија, 236029",+7 401 299-95-55
"Sigran, Magazin Stroitel'nykh Tovarov",Калининградская область,baza-bsm.ru,"Тихорецкий туп., 1/3, Калининград, Калининградская обл., Русија, 236011",+7 401 297-56-12
Td Stroypartner,Калининградская область,baza-bsm.ru,"ул. Энергетиков, 4, Калининград, Калининградская обл., Русија, 236034",+7 401 273-23-97
"Ooo ""Kma39""",Калининградская область,baza-bsm.ru,"ул. Эльблонгская, 30, Калининград, Калининградская обл., Русија, 236039",+7 401 253-81-91
"Stroitel'nyye Materialy Khozyain, Magazin",Калининградская область,baza-bsm.ru,"ул. Балтийская, 53, Гурьевский р-н, пос. Малое Исаково, Калининградская обл., Русија, 238310",+7 401 251-45-75
Baucenter,Калининградская область,baucenter.ru,"Гурьевский р-н, ул. Московский проспект 1-й съезд, Калининград, Калининградская обл., Русија, 238311",+7 401 299-93-00
Our store,Калининградская область,baucenter.ru,"ул. Колхозная, 26, Калининград, Калининградская обл., Русија, 238324",+7 401 258-39-60
ID СТРОЙ,Калининградская область,baucenter.ru,"ул. Гранитная, 1, Гурьевск, Калининградская обл., Русија, 238300",+7 401 267-46-25
Eko-Pol,Калининградская область,eco-pol.com,"пр-т. Мира, 84, пав. 36, Калининград, Калининградская обл., Русија, 236010",+7 401 250-92-26
Принцип Торг,Калининградская область,princip39.ru,"пр-т Победы, 139А, Калининград, Калининградская обл., Русија, 236010",+7 401 296-00-90
Chrisal,Калининградская область,princip39.ru,"ул. Мусоргского, 19, Офис 4, Калининград, Калининградская обл., Русија, 236029",+7 909 777-96-01
"Ooo ""Vest Treyd""",Калининградская область,вт39.рф,"ул. Индустриальная, 3, Калининград, Калининградская обл., Русија, 236038",+7 401 237-94-44
"Shop ""Nail""",Калининградская область,gvozd39.ru,"ул. Флотская, 9, Калининград, Калининградская обл., Русија, 236006",+7 911 460-90-74
"Мегаполис, Строительные Материалы",Калининградская область,megapolys.com,"пр-т. Мира, 142, Калининград, Калининградская обл., Русија, 236010",+7 401 299-81-67
"""Fanfiks"" Torgovaya Stroitel'naya Kompaniya. Stroitel'nyye Materialy V Kaliningrade",Калининградская область,fanfix.ru,"ул. Краснокаменная, 44а, Калининград, Калининградская обл., Русија, 236001",+7 401 246-61-14
Stroy-Kaliningrad,Калининградская область,fanfix.ru,"пр-т. Ленинский, 32, Калининград, Калининградская обл., Русија, 236006",+7 401 246-61-14
"Ruck Zuck, Магазин",Калининградская область,fanfix.ru,"ул. Полоцкая, 1, ТЦ МАСТЕР, Калининград, Калининградская обл., Русија, 236039",+7 401 253-32-20
Knauf,Калининградская область,knauf.ru,"пр-т. Мира, 136, Офис 330, Калининград, Калининградская обл., Русија, 236010",+7 401 252-34-55
KOSBUD,Калининградская область,kosbud.com.pl,"ул. Промышленная, 1 к3, Калининград, Калининградская обл., Русија, 236029",+7 401 256-50-70
Silk Plaster Калининград,Калининградская область,silkhouse39.ru,"ул. Генерала Челнокова, 42, Калининград, Калининградская обл., Русија, 236001",+7 401 292-08-42
Trade Guild,Калининградская область,gildiya39.ru,"а, ул. Индустриальная, 3а, Невское, Калининградская обл., Русија, 238324",+7 962 256-96-69
LION СТРОЙ & ХОЗМАРКЕТ,Калининградская область,gildiya39.ru,"ул. Дрожжевая, 1а, Калининград, Калининградская обл., Русија, 238300",+7 911 466-45-79
Amega-Stroy - Krovel'nyye I Fasadnyye Materialy,Калининградская область,amegastroi.ru,"Люблинское ш., д 42, Калининград, Калининградская обл., Русија, 236019",+7 967 042-00-58
Torgovyy Dom Raskras,Калининградская область,raskras39.ru,"Третьяковская ул., 2, Калининград, Калининградская обл., Русија, 236023",+7 401 252-38-48
Yevrostil',Калининградская область,eurostyle-kld.ru,"ал. Каштановая, 177Б, Калининград, Калининградская обл., Русија, 236023",+7 401 259-09-95
"Kar-Vit, Magazin Otdelochnykh Materialov I Santekhniki",Калининградская область,eurostyle-kld.ru,"ул. Дзержинского, 246, Калининград, Калининградская обл., Русија, 236034",+7 401 273-22-65
Qmix,Калининградская область,qmix.pro,"283, ул. Горького, Калининград, Калининградская обл., Русија, 236029",+7 401 252-27-77
Apriori,Калининградская область,apriori-kd.ru,"ТЦ ""Балтик Престиж"", пл. Маршала Василевского, 2, Калининград, Калининградская обл., Русија, 236006",+7 401 290-07-75
"ООО ""Капелев и М""",Калининградская область,kapelev.ru,"ул. Безымянная, 2, Гурьевск, Калининградская обл., Русија, 238300",+7 401 292-08-07
Dveri V Dom,Калининградская область,kapelev.ru,"Kaliningrad Oblast, Русија, 236029",+7 401 292-08-07
"Ooo ""Mtv Plyus""",Калининградская область,kapelev.ru,"Туруханская ул., 1, Калининград, Калининградская обл., Русија, 236019",+7 401 257-32-68
Construction and household goods,Калининградская область,kapelev.ru,"ул. Дзержинского, 117, Калининград, Калининградская обл., Русија, 236034",+7 401 268-77-77
Grandpesok39,Калининградская область,kapelev.ru,"ул. Безымянная, 13, Гурьевск, Калининградская обл., Русија, 238300",+7 902 422-41-82
Gidroprof,Калининградская область,gidrobet.ru,"ул. Толбухина, 20, Калининград, Калининградская обл., Русија, 236001",+7 401 251-08-02
Elementy Doma Sklad,Калининградская область,elementdoma.ru,"ул. Большая Окружная, 3 А, Невское, Калининградская обл., Русија, 236029",+7 401 231-08-21
"Printsip, Magazin",Калининградская область,princip39.ru,"ул. Камская, 2-а, Склад 1, Калининград, Русија, 236005",+7 401 265-02-72
Lkm-Servis,Калининградская область,princip39.ru,"ул. Суворова, 54, Калининград, Калининградская обл., Русија, 236005",+7 401 263-68-36
"Khozstroysnab-Ugol', Drova, Tsement, Brikety Kaliningrad",Калининградская область,hst-kaliningrad.ru,"Советский пр., 192А, Калининград, Калининградская обл., Русија, 236023",+7 981 450-25-32
dcm39,Калининградская область,dcm39.ru,"Московский пр., 40, Калининград, Калининградская обл., Русија, 236000",+7 401 290-70-90
Umnyy Dom Kaliningrad,Калининградская область,fulogy.ru,"ул. Профессора Баранова, 31, Калининград, Калининградская обл., Русија, 236029",+7 911 460-25-56
Shop roofing and facade materials Villa-Balt,Калининградская область,villa-balt.com,"ул. Камская, 63, Калининград, Калининградская обл., Русија, 236000",+7 401 266-02-22
Dobornyye Elementy Dlya Krovli I Sten,Калининградская область,villa-balt.com,"ул. Космонавта Леонова, 49A, Калининград, Калининградская обл., Русија, 236006",+7 401 277-88-48
Klondayk,Калининградская область,villa-balt.com,"Советский пр., 159ж, Калининград, Калининградская обл., Русија, 236023",+7 401 231-18-01
Detali,Калининградская область,detals.su,"ул. Железнодорожная, 41, Калининград, Калининградская обл., Русија, 236039",+7 908 290-03-54
Ooo Rapid,Калининградская область,rapidkld.ru,"ул. Большая Окружная, 6, Калининград, Калининградская обл., Русија, 236039",+7 401 238-88-24
Cork House,Калининградская область,corkdom39.com,"64A RU-KGD RU 236028, улица Космонавта Леонова, Калининград, Калининградская обл., Русија, 236023",+7 401 291-21-02
Sadovyy I Stroitel'nyy Instrument,Калининградская область,corkdom39.com,"ул. Киевская, 124, Калининград, Калининградская обл., Русија, 236005",+7 401 291-21-02
Pesok Kaliningrad,Калининградская область,material39.ru,"ул. Партизана Железняка, 19, Калининград, Калининградская обл., Русија, 236038",+7 906 239-81-73
"Tsentr Blagoustroystva ""Baltiyskiye Landshafty""",Калининградская область,sadfasad.wixsite.com,"ул. Мусоргского, 10, Калининград, Калининградская обл., Русија, 236022",+7 963 737-87-02
Dom&Decor,Калининградская область,dom-decor.com,"пр-т Победы, 157А, Калининград, Калининградская обл., Русија, 236010",+7 401 256-53-75
Tekhnoizol,Калининградская область,tehnoizol39.ru,"ул. Юрия Гагарина, 230, Калининград, Калининградская обл., Русија, 236038",+7 401 251-53-11
KLESTER System,Калининградская область,klester.ru,"ул. Большая Окружная, улица, 18, Калининград, Калининградская обл., Русија, 236009",+7 800 350-35-60
"Obshchestvo S Ogranichennoy Otvetstvennost'yu ""Internet Resheniya Prozon.ru""",Калининградская область,prozon.ru,"236039, 3 этаж, к.301, ул. Портовая, 45а, Калининград, Калининградская обл., Русија, 236006",+7 800 300-72-13
Klinker,Калининградская область,prozon.ru,"ул. Портовая, 34, Калининград, Калининградская обл., Русија, 236000",+7 401 265-59-47
Информ-Эксперт,Калининградская область,inform-expert.ru,"ул. Новый вал, 29/33, Калининград, Калининградская обл., Русија, 236039",+7 401 265-11-00
Kuzbass-Stroy,Калининградская область,inform-expert.ru,"ул. Дзержинского, 17-а, 1 офис, 3 этаж, Калининград, Калининградская обл., Русија, 236004",+7 906 213-50-89
"Td Stroymarket, Zvukoizolyatsiya Zhilykh I Kommercheskikh Pomeshcheniy",Калининградская область,inform-expert.ru,"ул. Александра Невского, 193а, Калининград, Калининградская обл., Русија, 236029",+7 401 292-06-09
Baza Bloka Na Kamskoy,Калининградская область,bazabloka.ru,"ул. Камская, 6А. 5, Калининград, Калининградская обл., Русија, 236005",+7 401 252-00-74
Instrumenty,Калининградская область,bazabloka.ru,"ул. Киевская, 147, Калининград, Калининградская обл., Русија, 236005",+7 401 244-39-87
"Vse Dlya Sada I Ogoroda, Magazin",Калининградская область,leroymerlin.ru,"Советский пр., 95, Калининград, Калининградская обл., Русија, 236023",+7 401 244-39-87
Baltrosnab,Калининградская область,baltrosnab.ru,"Шатурский пер., 11, Васильково, Калининградская обл., Русија, 238310",+7 401 251-55-66
Viplast,Калининградская область,wiplast.ru,"ул. Лейтенанта Яналова, 2, Калининград, Калининградская обл., Русија, 236023",+7 401 238-48-88
Moskeram,Калининградская область,moskeram39.ru,"ул. А. Матросова, 8, Калининград, Калининградская обл., Русија, 236005",+7 401 272-03-04
39 Sand,Калининградская область,39pesok.ru,"ул. Краснохолмская, 43, Калининград, Калининградская обл., Русија, 236009",+7 401 240-04-22
Muzhskoye Delo,Калининградская область,мужскоедело.рф,"ул. Советская, 1, Гурьевск, Калининградская обл., Русија, 238300",+7 981 470-97-97
Coal Kaliningrad,Калининградская область,vk.com,"ул. Краснохолмская, 41, Калининград, Калининградская обл., Русија, 236009",+7 963 738-51-88
Stroymir39,Калининградская область,stroymir39.ru,"ул. Генерал-лейтенанта Захарова, 2, Калининград, Калининградская обл., Русија, 236023",+7 401 276-07-97
"Aleksstroy, Remontno-Montazhnaya Kompaniya",Калининградская область,stroymir39.ru,"ул. Карла Маркса, 18, Калининград, Калининградская обл., Русија, 236022",+7 401 265-82-32
Baza Kirpicha,Калининградская область,bazakirpicha.ru,"п. Кутузово, ул. Большой окружной проезд, д.2, Калининград, Калининградская обл., Русија, 236000",+7 401 242-30-07
"Алтай, центр ограждений № 1",Калининградская область,altai-zabor.ru,"пос. Васильково, ул. Западная, 55, Калининград, Калининградская обл., Русија, 238310",+7 401 237-30-31
Tsementsnabkaliningrad,Калининградская область,cement-kaliningrad.ru,"Советский пр., 159, Калининград, Калининградская обл., Русија, 236023",+7 911 482-62-07
Ekodom Plyus Ooo,Калининградская область,cement-kaliningrad.ru,"ул. Краснокаменная, 42, Калининград, Калининградская обл., Русија, 236009",+7 401 257-40-86
Ebis - Tsentr Krovel'nykh Materialov,Калининградская область,cement-kaliningrad.ru,"Е,, ул. Калининградская, 2, Большое Исаково, Калининградская обл., Русија, 238311",+7 401 299-40-40
Stroitel'nyy Sezon,Калининградская область,cement-kaliningrad.ru,"ул. Александра Невского, 41а, Калининград, Калининградская обл., Русија, 236039",+7 401 265-10-99
Kaliningradstroymarket,Калининградская область,ksm39.ru,"ул. Энергетиков, 6А, Калининград, Калининградская обл., Русија, 236034",+7 401 252-62-86
Интернет-магазин строительных материалов «Аврора»,Калининградская область,avrora39.ru,"ул. Индустриальная, 11, Калининград, Калининградская обл., Русија, 236038",+7 401 265-84-40
Delovaya Rus',Калининградская область,bus-rus.com,"ул. Большая Окружная, 20, Калининград, Калининградская обл., Русија, 236009",+7 401 299-99-22
"Ну, ты мужик!, магазин ООО ""Сатурния""",Калининградская область,bus-rus.com,"Московский пр., 120а, Калининград, Калининградская обл., Русија, 236039",+7 906 235-32-29
Centre for Environmental Building Materials,Калининградская область,steico39.ru,"4-я Б. Окружная ул., 35, Калининград, Калининградская обл., Русија, 236009",+7 906 211-11-88
Td Russkiy Terem,Калининградская область,teremkatalog.com,"Люблинское ш., 2, Калининград, Калининградская обл., Русија, 236023",+7 401 239-18-22
PARADOR,Калининградская область,полыстеныпотолки.рф,"ул. Сержанта Колоскова, 12, Калининград, Калининградская обл., Русија, 236022",+7 981 476-10-18
Zapadnaya Tekhnicheskaya Kompaniya,Калининградская область,полыстеныпотолки.рф,"ул. Железнодорожная, 12, Калининград, Калининградская обл., Русија, 236039",+7 401 250-78-04
"""Baltseptik"" Chistyye Tekhnologii Dlya Vashego Doma",Калининградская область,балтсептик.рф,"Вишневый пер., 1, Шоссейное, Калининградская обл., Русија, 236028",+7 401 250-94-50
"СТРОЙХОЗТОВАРЫ, ИП Олиферчук С.П., официальный представитель Ревякинского металлопрокатного завода",Калининградская область,torgrevz1.ru,"ул. Олега Кошевого, 17-17а, Калининград, Калининградская обл., Русија, 236011",+7 401 275-06-07
Gur'yevskiy Zavod Penopolistirola,Калининградская область,penopolistirol-39.ru,"ул. Безымянная, 30, Гурьевск, Калининградская обл., Русија, 238300",+7 401 250-97-63
"New walls, decorative paints and plasters",Калининградская область,kraski39.ru,"ул. Калининградская, 2д, Большое Исаково, Калининградская обл., Русија, 238311",+7 401 220-13-02
Ooo Inform M-N Iskorka,Калининградская область,inform-expert.ru,"пр-т. Ленинский, 21-25, Калининград, Калининградская обл., Русија, 236006",+7 401 265-11-00
Denis,Калининградская область,inform-expert.ru,"ул. Дениса Давыдова, 26, Калининград, Калининградская обл., Русија, 236019",+7 401 296-58-62
Kerasfera Na Sel'me,Калининградская область,kerasfera.ru,"ул. Юрия Маточкина, 2А, Калининград, Калининградская обл., Русија, 236029",+7 401 231-05-00
"Atomoto, Magazin Sel'skokhozyaystvennoy Tekhniki I Kommunal'nogo Oborudovaniya",Калининградская область,tehnotrade39.ru,"Г, Калининградская обл., Россия 236011, улица аллея Смелых, 31, Калининград, Калининградская обл., Русија, 236011",+7 401 272-21-40
Interio Decor,Калининградская область,tehnotrade39.ru,"ул. Тихорецкая, 2Б, Калининград, Калининградская обл., Русија, 236005",+7 921 006-97-93
